{
  "type": "FeatureCollection",
  "properties": {
    "version": 3,
    "track_id": "PRNQW5VVYW5Z",
    "segment": "s007",
    "opened_at": "2026-07-29T06:04:01.617445Z",
    "closed_at": null,
    "anchor": {
      "known": true,
      "boot_id": "26",
      "mono_anchor_ms": 1178615796,
      "wall_anchor_ms": 1785304997584,
      "anchored_at_t": 1785304997,
      "uncertain": false
    },
    "stats": {
      "distance_nm": 0.0,
      "point_count": 0,
      "t_start": null,
      "t_stop": null
    }
  },
  "features": [
    {
      "type": "Feature",
      "geometry": {
        "type": "LineString",
        "coordinates": []
      },
      "properties": {
        "timestamps": []
      }
    }
  ]
}