{
  "type": "FeatureCollection",
  "properties": {
    "version": 3,
    "track_id": "PRNQW5VVYW5Z",
    "segment": "s006",
    "opened_at": "2026-07-28T07:50:00.555479Z",
    "closed_at": null,
    "anchor": {
      "known": true,
      "boot_id": "26",
      "mono_anchor_ms": 1098534321,
      "wall_anchor_ms": 1785224916122,
      "anchored_at_t": 1785224916,
      "uncertain": false
    },
    "stats": {
      "distance_nm": 1.262,
      "point_count": 539,
      "t_start": 1785224923,
      "t_stop": 1785226072
    }
  },
  "features": [
    {
      "type": "Feature",
      "geometry": {
        "type": "LineString",
        "coordinates": [
          [
            14.2038219,
            68.1536222
          ],
          [
            14.2038895,
            68.1536108
          ],
          [
            14.20387905,
            68.15362225
          ],
          [
            14.2039681,
            68.1535993
          ],
          [
            14.2039752,
            68.1535979
          ],
          [
            14.2039685,
            68.1535931
          ],
          [
            14.2039593,
            68.1535732
          ],
          [
            14.2039433,
            68.1535725
          ],
          [
            14.2039272,
            68.1535708
          ],
          [
            14.2039145,
            68.1535718
          ],
          [
            14.2038994,
            68.1535803
          ],
          [
            14.203809,
            68.1536093
          ],
          [
            14.2038616,
            68.1536418
          ],
          [
            14.203942,
            68.153668
          ],
          [
            14.2039171,
            68.1537014
          ],
          [
            14.2039535,
            68.1537146
          ],
          [
            14.2040289,
            68.1537186
          ],
          [
            14.2041008,
            68.1537164
          ],
          [
            14.2039761,
            68.1537439
          ],
          [
            14.203973,
            68.1537493
          ],
          [
            14.2039962,
            68.1537493
          ],
          [
            14.2040262,
            68.1537482
          ],
          [
            14.2039796,
            68.1537687
          ],
          [
            14.2039922,
            68.1537702
          ],
          [
            14.2040095,
            68.1537694
          ],
          [
            14.2039633,
            68.1537845
          ],
          [
            14.2039618,
            68.1537888
          ],
          [
            14.2039713,
            68.15379
          ],
          [
            14.2039851,
            68.1537903
          ],
          [
            14.2039921,
            68.1537855
          ],
          [
            14.2039973,
            68.1537859
          ],
          [
            14.2039992,
            68.1537869
          ],
          [
            14.2039958,
            68.1537883
          ],
          [
            14.2039381,
            68.1537847
          ],
          [
            14.2039252,
            68.1537855
          ],
          [
            14.2039223,
            68.1537853
          ],
          [
            14.2039212,
            68.1537847
          ],
          [
            14.2039057,
            68.1537964
          ],
          [
            14.2039101,
            68.1537991
          ],
          [
            14.2039995,
            68.1537597
          ],
          [
            14.204035,
            68.1537571
          ],
          [
            14.2040722,
            68.1537558
          ],
          [
            14.2041289,
            68.1537523
          ],
          [
            14.2041877,
            68.1537525
          ],
          [
            14.2042601,
            68.1537527
          ],
          [
            14.204339,
            68.1537513
          ],
          [
            14.2044207,
            68.1537526
          ],
          [
            14.2045095,
            68.1537562
          ],
          [
            14.2046019,
            68.1537627
          ],
          [
            14.2046988,
            68.1537733
          ],
          [
            14.2047969,
            68.15379
          ],
          [
            14.2048815,
            68.153811
          ],
          [
            14.2049592,
            68.1538361
          ],
          [
            14.2050299,
            68.1538633
          ],
          [
            14.205074,
            68.1538923
          ],
          [
            14.2051075,
            68.1539253
          ],
          [
            14.2051449,
            68.1539541
          ],
          [
            14.2051936,
            68.1539957
          ],
          [
            14.2052229,
            68.154023
          ],
          [
            14.2052542,
            68.1540505
          ],
          [
            14.2052857,
            68.1540782
          ],
          [
            14.2053222,
            68.1541055
          ],
          [
            14.2053593,
            68.1541329
          ],
          [
            14.2053946,
            68.1541596
          ],
          [
            14.2054298,
            68.1541868
          ],
          [
            14.2054629,
            68.1542142
          ],
          [
            14.2055036,
            68.1542408
          ],
          [
            14.2055468,
            68.1542656
          ],
          [
            14.2055917,
            68.1542894
          ],
          [
            14.2056378,
            68.1543121
          ],
          [
            14.2056859,
            68.1543339
          ],
          [
            14.2057331,
            68.1543559
          ],
          [
            14.2057828,
            68.1543773
          ],
          [
            14.2058315,
            68.1543986
          ],
          [
            14.2058809,
            68.1544192
          ],
          [
            14.2059334,
            68.1544393
          ],
          [
            14.2059845,
            68.1544586
          ],
          [
            14.2060404,
            68.1544786
          ],
          [
            14.206098,
            68.1544966
          ],
          [
            14.2061532,
            68.1545158
          ],
          [
            14.2062091,
            68.1545346
          ],
          [
            14.2062636,
            68.1545543
          ],
          [
            14.2063173,
            68.1545738
          ],
          [
            14.2063702,
            68.154593
          ],
          [
            14.2064218,
            68.1546117
          ],
          [
            14.2064735,
            68.1546307
          ],
          [
            14.2065252,
            68.1546492
          ],
          [
            14.2065763,
            68.1546683
          ],
          [
            14.2066275,
            68.1546869
          ],
          [
            14.2066779,
            68.1547057
          ],
          [
            14.2067297,
            68.1547239
          ],
          [
            14.2067828,
            68.1547415
          ],
          [
            14.2068352,
            68.1547592
          ],
          [
            14.2068878,
            68.1547767
          ],
          [
            14.2069397,
            68.154795
          ],
          [
            14.2069903,
            68.1548133
          ],
          [
            14.2070425,
            68.1548308
          ],
          [
            14.2070946,
            68.1548482
          ],
          [
            14.207145,
            68.1548663
          ],
          [
            14.2071962,
            68.1548842
          ],
          [
            14.2072495,
            68.1549025
          ],
          [
            14.2073038,
            68.1549202
          ],
          [
            14.2073552,
            68.154938
          ],
          [
            14.2074079,
            68.1549561
          ],
          [
            14.2074608,
            68.1549737
          ],
          [
            14.2075146,
            68.1549913
          ],
          [
            14.2075663,
            68.1550083
          ],
          [
            14.207614,
            68.1550246
          ],
          [
            14.2076719,
            68.155042
          ],
          [
            14.2077237,
            68.1550595
          ],
          [
            14.2077758,
            68.1550765
          ],
          [
            14.2078273,
            68.1550933
          ],
          [
            14.2078805,
            68.1551106
          ],
          [
            14.2079265,
            68.1551278
          ],
          [
            14.2079871,
            68.1551434
          ],
          [
            14.2080369,
            68.1551619
          ],
          [
            14.2080869,
            68.1551796
          ],
          [
            14.208138,
            68.1551978
          ],
          [
            14.2081887,
            68.1552152
          ],
          [
            14.2082392,
            68.1552329
          ],
          [
            14.2082915,
            68.1552507
          ],
          [
            14.2083439,
            68.1552681
          ],
          [
            14.2083983,
            68.1552864
          ],
          [
            14.2084533,
            68.1553052
          ],
          [
            14.2085075,
            68.1553236
          ],
          [
            14.2085623,
            68.1553417
          ],
          [
            14.2086178,
            68.1553605
          ],
          [
            14.2086706,
            68.1553788
          ],
          [
            14.2087261,
            68.1553975
          ],
          [
            14.2087771,
            68.1554153
          ],
          [
            14.2088272,
            68.1554335
          ],
          [
            14.2088769,
            68.1554524
          ],
          [
            14.2089345,
            68.1554723
          ],
          [
            14.20899,
            68.15549
          ],
          [
            14.2090434,
            68.1555092
          ],
          [
            14.2090924,
            68.155529
          ],
          [
            14.2091425,
            68.1555475
          ],
          [
            14.209192,
            68.1555672
          ],
          [
            14.2092423,
            68.1555872
          ],
          [
            14.2092907,
            68.1556077
          ],
          [
            14.209339,
            68.1556272
          ],
          [
            14.2093886,
            68.1556467
          ],
          [
            14.209436,
            68.1556658
          ],
          [
            14.2094844,
            68.1556848
          ],
          [
            14.2095356,
            68.1557049
          ],
          [
            14.2095824,
            68.1557253
          ],
          [
            14.209625,
            68.155746
          ],
          [
            14.2096845,
            68.155765
          ],
          [
            14.2097347,
            68.1557839
          ],
          [
            14.2097853,
            68.1558036
          ],
          [
            14.2098367,
            68.1558236
          ],
          [
            14.2098748,
            68.1558441
          ],
          [
            14.2099232,
            68.1558638
          ],
          [
            14.2099707,
            68.1558829
          ],
          [
            14.2100201,
            68.1559027
          ],
          [
            14.2100661,
            68.1559225
          ],
          [
            14.210112,
            68.1559423
          ],
          [
            14.2101568,
            68.1559623
          ],
          [
            14.2102058,
            68.155982
          ],
          [
            14.2102548,
            68.1560021
          ],
          [
            14.2103013,
            68.1560221
          ],
          [
            14.210346,
            68.1560435
          ],
          [
            14.2103925,
            68.1560648
          ],
          [
            14.210441,
            68.1560848
          ],
          [
            14.2104947,
            68.1561021
          ],
          [
            14.2105378,
            68.1561238
          ],
          [
            14.2105849,
            68.1561446
          ],
          [
            14.2106335,
            68.1561655
          ],
          [
            14.2106795,
            68.1561854
          ],
          [
            14.2107266,
            68.1562057
          ],
          [
            14.2107747,
            68.1562263
          ],
          [
            14.2108191,
            68.1562473
          ],
          [
            14.2108678,
            68.156267
          ],
          [
            14.2109163,
            68.1562861
          ],
          [
            14.2109634,
            68.156306
          ],
          [
            14.211008,
            68.1563264
          ],
          [
            14.211054,
            68.1563472
          ],
          [
            14.2110979,
            68.156369
          ],
          [
            14.2111417,
            68.1563903
          ],
          [
            14.2111892,
            68.1564116
          ],
          [
            14.2112375,
            68.1564322
          ],
          [
            14.2112929,
            68.1564502
          ],
          [
            14.2113471,
            68.156469
          ],
          [
            14.2114017,
            68.156487
          ],
          [
            14.2114597,
            68.1565031
          ],
          [
            14.2115247,
            68.1565172
          ],
          [
            14.2115864,
            68.1565336
          ],
          [
            14.2116562,
            68.1565471
          ],
          [
            14.2117284,
            68.1565597
          ],
          [
            14.211803,
            68.1565695
          ],
          [
            14.211878,
            68.1565789
          ],
          [
            14.211957,
            68.1565862
          ],
          [
            14.2120386,
            68.1565903
          ],
          [
            14.2121213,
            68.1565932
          ],
          [
            14.2122044,
            68.1565939
          ],
          [
            14.212288,
            68.1565926
          ],
          [
            14.2123735,
            68.1565884
          ],
          [
            14.212458,
            68.1565842
          ],
          [
            14.2125432,
            68.156578
          ],
          [
            14.2126268,
            68.1565724
          ],
          [
            14.2127104,
            68.1565651
          ],
          [
            14.2127937,
            68.1565552
          ],
          [
            14.2128749,
            68.1565437
          ],
          [
            14.2129543,
            68.1565312
          ],
          [
            14.2130314,
            68.1565153
          ],
          [
            14.2131052,
            68.1564966
          ],
          [
            14.2131807,
            68.1564783
          ],
          [
            14.2132623,
            68.1564615
          ],
          [
            14.2133439,
            68.1564414
          ],
          [
            14.2134302,
            68.1564233
          ],
          [
            14.2135203,
            68.1564051
          ],
          [
            14.2136127,
            68.1563861
          ],
          [
            14.213709,
            68.1563688
          ],
          [
            14.2138024,
            68.1563523
          ],
          [
            14.2139069,
            68.1563331
          ],
          [
            14.2140085,
            68.1563175
          ],
          [
            14.2141157,
            68.1563038
          ],
          [
            14.2142246,
            68.1562909
          ],
          [
            14.214337,
            68.1562793
          ],
          [
            14.2144524,
            68.1562688
          ],
          [
            14.2145662,
            68.1562556
          ],
          [
            14.2146801,
            68.156244
          ],
          [
            14.2147958,
            68.156233
          ],
          [
            14.2149125,
            68.1562201
          ],
          [
            14.2150276,
            68.1562063
          ],
          [
            14.2151446,
            68.1561899
          ],
          [
            14.2152627,
            68.1561774
          ],
          [
            14.2153816,
            68.1561643
          ],
          [
            14.2155013,
            68.1561512
          ],
          [
            14.2156213,
            68.1561366
          ],
          [
            14.2157408,
            68.1561216
          ],
          [
            14.2158585,
            68.1561057
          ],
          [
            14.2159755,
            68.1560894
          ],
          [
            14.2160933,
            68.1560725
          ],
          [
            14.2162092,
            68.1560534
          ],
          [
            14.2163219,
            68.1560339
          ],
          [
            14.2164339,
            68.1560123
          ],
          [
            14.2165453,
            68.1559899
          ],
          [
            14.216654,
            68.1559666
          ],
          [
            14.2167611,
            68.1559427
          ],
          [
            14.2168689,
            68.1559182
          ],
          [
            14.2169731,
            68.155892
          ],
          [
            14.2170693,
            68.1558627
          ],
          [
            14.2171561,
            68.1558283
          ],
          [
            14.217226,
            68.1557893
          ],
          [
            14.2172873,
            68.1557483
          ],
          [
            14.2173471,
            68.1557068
          ],
          [
            14.217405,
            68.1556652
          ],
          [
            14.2174529,
            68.1556223
          ],
          [
            14.2174925,
            68.1555783
          ],
          [
            14.2175286,
            68.1555339
          ],
          [
            14.2175572,
            68.1554879
          ],
          [
            14.217579,
            68.1554416
          ],
          [
            14.2175917,
            68.1553951
          ],
          [
            14.2176007,
            68.1553482
          ],
          [
            14.2176141,
            68.1553018
          ],
          [
            14.2176243,
            68.1552558
          ],
          [
            14.2176313,
            68.1552095
          ],
          [
            14.2176318,
            68.1551627
          ],
          [
            14.2176284,
            68.1551164
          ],
          [
            14.2176192,
            68.1550709
          ],
          [
            14.2176046,
            68.1550254
          ],
          [
            14.2175834,
            68.1549807
          ],
          [
            14.2175554,
            68.1549358
          ],
          [
            14.2175244,
            68.1548907
          ],
          [
            14.2174896,
            68.1548466
          ],
          [
            14.2174492,
            68.1548032
          ],
          [
            14.2174068,
            68.1547603
          ],
          [
            14.2173627,
            68.1547175
          ],
          [
            14.2173169,
            68.1546749
          ],
          [
            14.2172662,
            68.1546333
          ],
          [
            14.2172182,
            68.1545916
          ],
          [
            14.2171674,
            68.1545503
          ],
          [
            14.2171135,
            68.1545087
          ],
          [
            14.2170557,
            68.1544669
          ],
          [
            14.2169937,
            68.1544261
          ],
          [
            14.2169331,
            68.1543864
          ],
          [
            14.2168702,
            68.1543469
          ],
          [
            14.2168097,
            68.1543064
          ],
          [
            14.2167453,
            68.1542659
          ],
          [
            14.2166799,
            68.1542264
          ],
          [
            14.2166126,
            68.154187
          ],
          [
            14.2165417,
            68.1541486
          ],
          [
            14.2164666,
            68.1541123
          ],
          [
            14.2163891,
            68.1540759
          ],
          [
            14.2163094,
            68.1540397
          ],
          [
            14.2162296,
            68.1540028
          ],
          [
            14.2161572,
            68.1539633
          ],
          [
            14.2160792,
            68.1539252
          ],
          [
            14.2160036,
            68.1538891
          ],
          [
            14.2159288,
            68.153852
          ],
          [
            14.2158529,
            68.1538185
          ],
          [
            14.2157749,
            68.1537828
          ],
          [
            14.2156966,
            68.1537464
          ],
          [
            14.2156198,
            68.1537105
          ],
          [
            14.2155432,
            68.1536742
          ],
          [
            14.2154649,
            68.1536373
          ],
          [
            14.2153866,
            68.1536008
          ],
          [
            14.2153086,
            68.1535648
          ],
          [
            14.2152221,
            68.1535289
          ],
          [
            14.215141,
            68.1534931
          ],
          [
            14.2150608,
            68.1534573
          ],
          [
            14.2149806,
            68.1534217
          ],
          [
            14.214901,
            68.1533859
          ],
          [
            14.2148205,
            68.1533496
          ],
          [
            14.2147367,
            68.1533145
          ],
          [
            14.2146582,
            68.1532778
          ],
          [
            14.2145854,
            68.1532395
          ],
          [
            14.2145086,
            68.1532031
          ],
          [
            14.2144312,
            68.1531669
          ],
          [
            14.2143536,
            68.1531311
          ],
          [
            14.2142756,
            68.1530951
          ],
          [
            14.214194,
            68.1530605
          ],
          [
            14.2141109,
            68.1530256
          ],
          [
            14.21403,
            68.1529899
          ],
          [
            14.2139557,
            68.1529522
          ],
          [
            14.2138868,
            68.1529131
          ],
          [
            14.2138216,
            68.1528728
          ],
          [
            14.2137587,
            68.1528327
          ],
          [
            14.2136952,
            68.1527925
          ],
          [
            14.2136311,
            68.1527527
          ],
          [
            14.2135712,
            68.1527111
          ],
          [
            14.2135138,
            68.1526695
          ],
          [
            14.2134599,
            68.1526274
          ],
          [
            14.2134076,
            68.1525846
          ],
          [
            14.2133623,
            68.1525419
          ],
          [
            14.2133126,
            68.1524988
          ],
          [
            14.2132701,
            68.1524543
          ],
          [
            14.2132312,
            68.1524098
          ],
          [
            14.2131882,
            68.1523663
          ],
          [
            14.2131446,
            68.152322
          ],
          [
            14.2131018,
            68.1522778
          ],
          [
            14.2130643,
            68.1522344
          ],
          [
            14.2130225,
            68.1521927
          ],
          [
            14.2129812,
            68.1521481
          ],
          [
            14.2129405,
            68.1521037
          ],
          [
            14.2128991,
            68.1520599
          ],
          [
            14.2128576,
            68.152016
          ],
          [
            14.2128171,
            68.1519722
          ],
          [
            14.2127769,
            68.1519287
          ],
          [
            14.2127376,
            68.1518854
          ],
          [
            14.2126991,
            68.1518417
          ],
          [
            14.2126574,
            68.1517982
          ],
          [
            14.2126162,
            68.1517546
          ],
          [
            14.2125768,
            68.1517108
          ],
          [
            14.2125371,
            68.151667
          ],
          [
            14.2124986,
            68.1516232
          ],
          [
            14.2124614,
            68.1515796
          ],
          [
            14.212426,
            68.1515356
          ],
          [
            14.2123919,
            68.1514916
          ],
          [
            14.2123606,
            68.1514475
          ],
          [
            14.2123328,
            68.1514033
          ],
          [
            14.2123064,
            68.1513588
          ],
          [
            14.2122824,
            68.1513143
          ],
          [
            14.2122599,
            68.1512696
          ],
          [
            14.2122383,
            68.1512244
          ],
          [
            14.2122188,
            68.1511791
          ],
          [
            14.2121995,
            68.1511342
          ],
          [
            14.2121798,
            68.1510889
          ],
          [
            14.212158,
            68.1510438
          ],
          [
            14.2121387,
            68.1509987
          ],
          [
            14.2121161,
            68.1509532
          ],
          [
            14.2120917,
            68.1509083
          ],
          [
            14.2120655,
            68.1508637
          ],
          [
            14.2120369,
            68.1508188
          ],
          [
            14.2120053,
            68.1507743
          ],
          [
            14.2119708,
            68.1507297
          ],
          [
            14.2119331,
            68.1506857
          ],
          [
            14.2118916,
            68.1506417
          ],
          [
            14.2118499,
            68.1505979
          ],
          [
            14.2118061,
            68.1505544
          ],
          [
            14.2117604,
            68.1505109
          ],
          [
            14.2117149,
            68.1504674
          ],
          [
            14.2116669,
            68.1504244
          ],
          [
            14.2116194,
            68.1503815
          ],
          [
            14.2115735,
            68.1503385
          ],
          [
            14.2115333,
            68.1502949
          ],
          [
            14.2114796,
            68.1502526
          ],
          [
            14.2114264,
            68.1502111
          ],
          [
            14.2113684,
            68.1501706
          ],
          [
            14.2113026,
            68.1501309
          ],
          [
            14.2112348,
            68.1500925
          ],
          [
            14.2111661,
            68.1500538
          ],
          [
            14.2110973,
            68.1500158
          ],
          [
            14.2110278,
            68.1499777
          ],
          [
            14.2109597,
            68.1499398
          ],
          [
            14.2108925,
            68.1499017
          ],
          [
            14.2108255,
            68.1498639
          ],
          [
            14.2107594,
            68.1498256
          ],
          [
            14.2106925,
            68.1497874
          ],
          [
            14.2106238,
            68.14975
          ],
          [
            14.2105538,
            68.1497132
          ],
          [
            14.2104783,
            68.1496776
          ],
          [
            14.2104016,
            68.1496429
          ],
          [
            14.2103202,
            68.149609
          ],
          [
            14.2102343,
            68.1495775
          ],
          [
            14.2101434,
            68.1495458
          ],
          [
            14.2100546,
            68.1495149
          ],
          [
            14.2099674,
            68.1494833
          ],
          [
            14.20988,
            68.1494515
          ],
          [
            14.2097933,
            68.1494191
          ],
          [
            14.2097068,
            68.1493866
          ],
          [
            14.2096206,
            68.1493547
          ],
          [
            14.2095327,
            68.1493226
          ],
          [
            14.2094483,
            68.1492901
          ],
          [
            14.2093604,
            68.1492578
          ],
          [
            14.2092756,
            68.1492254
          ],
          [
            14.209188,
            68.1491927
          ],
          [
            14.2091016,
            68.1491607
          ],
          [
            14.2090157,
            68.149128
          ],
          [
            14.2089287,
            68.1490968
          ],
          [
            14.2088449,
            68.1490624
          ],
          [
            14.2087527,
            68.149032
          ],
          [
            14.208665,
            68.1490004
          ],
          [
            14.2085786,
            68.1489686
          ],
          [
            14.208489,
            68.1489375
          ],
          [
            14.2083994,
            68.1489068
          ],
          [
            14.2083094,
            68.1488758
          ],
          [
            14.2082208,
            68.148844
          ],
          [
            14.208132,
            68.1488121
          ],
          [
            14.208045,
            68.1487796
          ],
          [
            14.2079596,
            68.1487485
          ],
          [
            14.2078719,
            68.1487153
          ],
          [
            14.2077891,
            68.1486836
          ],
          [
            14.2077001,
            68.1486535
          ],
          [
            14.207611,
            68.1486237
          ],
          [
            14.2075171,
            68.148594
          ],
          [
            14.2074242,
            68.1485634
          ],
          [
            14.2073329,
            68.1485331
          ],
          [
            14.2072448,
            68.1485013
          ],
          [
            14.2071611,
            68.1484681
          ],
          [
            14.2070694,
            68.1484348
          ],
          [
            14.2069796,
            68.148403
          ],
          [
            14.2068959,
            68.1483718
          ],
          [
            14.2068098,
            68.148339
          ],
          [
            14.2067256,
            68.1483066
          ],
          [
            14.2066422,
            68.1482736
          ],
          [
            14.2065617,
            68.1482404
          ],
          [
            14.2064827,
            68.1482053
          ],
          [
            14.2064065,
            68.1481707
          ],
          [
            14.206334,
            68.1481355
          ],
          [
            14.206257,
            68.148101
          ],
          [
            14.2061772,
            68.1480672
          ],
          [
            14.2061042,
            68.1480314
          ],
          [
            14.2060267,
            68.147997
          ],
          [
            14.2059486,
            68.1479639
          ],
          [
            14.2058736,
            68.1479282
          ],
          [
            14.2057961,
            68.1478941
          ],
          [
            14.2057181,
            68.1478596
          ],
          [
            14.2056373,
            68.1478265
          ],
          [
            14.2055542,
            68.1477922
          ],
          [
            14.2054704,
            68.1477593
          ],
          [
            14.20539,
            68.1477267
          ],
          [
            14.2053051,
            68.1476918
          ],
          [
            14.2052244,
            68.1476597
          ],
          [
            14.2051432,
            68.1476256
          ],
          [
            14.2050581,
            68.1475919
          ],
          [
            14.2049795,
            68.1475586
          ],
          [
            14.2048996,
            68.147524
          ],
          [
            14.2048213,
            68.1474895
          ],
          [
            14.2047458,
            68.1474549
          ],
          [
            14.2046717,
            68.1474188
          ],
          [
            14.2045979,
            68.1473816
          ],
          [
            14.2045279,
            68.1473456
          ],
          [
            14.2044617,
            68.1473069
          ],
          [
            14.2043969,
            68.1472687
          ],
          [
            14.2043355,
            68.1472306
          ],
          [
            14.2042781,
            68.1471906
          ],
          [
            14.2042261,
            68.1471509
          ],
          [
            14.2041722,
            68.1471109
          ],
          [
            14.204114,
            68.1470708
          ],
          [
            14.2040541,
            68.1470306
          ],
          [
            14.2039947,
            68.1469925
          ],
          [
            14.2039299,
            68.146953
          ],
          [
            14.203864,
            68.1469152
          ],
          [
            14.2038012,
            68.1468777
          ],
          [
            14.2037331,
            68.1468405
          ],
          [
            14.2036685,
            68.146803
          ],
          [
            14.2036031,
            68.146765
          ],
          [
            14.2035366,
            68.146727
          ],
          [
            14.2034711,
            68.1466883
          ],
          [
            14.203406,
            68.1466497
          ],
          [
            14.2033398,
            68.1466095
          ],
          [
            14.203275,
            68.1465674
          ],
          [
            14.2032027,
            68.1465249
          ],
          [
            14.2031304,
            68.1464823
          ],
          [
            14.2030556,
            68.146438
          ],
          [
            14.2029814,
            68.1463943
          ],
          [
            14.2029017,
            68.1463502
          ],
          [
            14.2028188,
            68.1463067
          ],
          [
            14.2027344,
            68.1462618
          ],
          [
            14.2026453,
            68.146219
          ],
          [
            14.2025606,
            68.1461766
          ],
          [
            14.2024642,
            68.1461344
          ],
          [
            14.2023698,
            68.1460907
          ],
          [
            14.2022741,
            68.14605
          ],
          [
            14.2021714,
            68.146009
          ],
          [
            14.2020679,
            68.1459698
          ],
          [
            14.2019578,
            68.1459308
          ],
          [
            14.2018499,
            68.1458927
          ],
          [
            14.201739,
            68.1458556
          ],
          [
            14.2016282,
            68.1458206
          ],
          [
            14.2015118,
            68.1457837
          ],
          [
            14.201396,
            68.145748
          ],
          [
            14.20128,
            68.1457143
          ],
          [
            14.2011668,
            68.1456779
          ],
          [
            14.2010433,
            68.1456438
          ],
          [
            14.2009255,
            68.1456094
          ],
          [
            14.2008073,
            68.1455782
          ],
          [
            14.2006819,
            68.1455446
          ],
          [
            14.2005575,
            68.1455118
          ],
          [
            14.2004355,
            68.14548
          ],
          [
            14.2003108,
            68.1454492
          ],
          [
            14.2001815,
            68.1454198
          ],
          [
            14.2000547,
            68.1453894
          ],
          [
            14.1999251,
            68.1453595
          ],
          [
            14.1997939,
            68.1453326
          ],
          [
            14.199662,
            68.1453069
          ],
          [
            14.1995355,
            68.145277
          ],
          [
            14.1994073,
            68.1452451
          ],
          [
            14.1992841,
            68.1452145
          ],
          [
            14.1991659,
            68.1451814
          ],
          [
            14.1990453,
            68.1451458
          ],
          [
            14.1989318,
            68.145107
          ],
          [
            14.1988264,
            68.1450692
          ],
          [
            14.1987153,
            68.1450333
          ],
          [
            14.1986078,
            68.1449913
          ],
          [
            14.1984953,
            68.1449538
          ],
          [
            14.1983941,
            68.1449107
          ],
          [
            14.1982882,
            68.1448728
          ],
          [
            14.1981849,
            68.1448313
          ],
          [
            14.1980792,
            68.1447939
          ],
          [
            14.1979719,
            68.1447536
          ],
          [
            14.1978639,
            68.1447152
          ],
          [
            14.1977473,
            68.1446792
          ],
          [
            14.1976312,
            68.144642
          ],
          [
            14.197513,
            68.1446091
          ],
          [
            14.197393,
            68.1445767
          ],
          [
            14.1972689,
            68.1445426
          ]
        ]
      },
      "properties": {
        "timestamps": [
          1785224923,
          1785224924,
          1785224942,
          1785224994,
          1785224996,
          1785224999,
          1785225007,
          1785225009,
          1785225011,
          1785225013,
          1785225015,
          1785225017,
          1785225019,
          1785225021,
          1785225023,
          1785225025,
          1785225027,
          1785225029,
          1785225031,
          1785225033,
          1785225035,
          1785225037,
          1785225039,
          1785225041,
          1785225043,
          1785225045,
          1785225047,
          1785225049,
          1785225051,
          1785225053,
          1785225055,
          1785225057,
          1785225059,
          1785225061,
          1785225063,
          1785225065,
          1785225067,
          1785225069,
          1785225071,
          1785225073,
          1785225075,
          1785225077,
          1785225079,
          1785225081,
          1785225083,
          1785225085,
          1785225087,
          1785225089,
          1785225091,
          1785225093,
          1785225095,
          1785225097,
          1785225099,
          1785225101,
          1785225103,
          1785225105,
          1785225108,
          1785225110,
          1785225112,
          1785225114,
          1785225116,
          1785225118,
          1785225120,
          1785225122,
          1785225124,
          1785225126,
          1785225128,
          1785225130,
          1785225132,
          1785225134,
          1785225136,
          1785225138,
          1785225140,
          1785225142,
          1785225144,
          1785225146,
          1785225148,
          1785225150,
          1785225152,
          1785225154,
          1785225156,
          1785225158,
          1785225160,
          1785225162,
          1785225164,
          1785225166,
          1785225168,
          1785225170,
          1785225172,
          1785225174,
          1785225176,
          1785225178,
          1785225180,
          1785225182,
          1785225184,
          1785225186,
          1785225188,
          1785225190,
          1785225192,
          1785225194,
          1785225196,
          1785225198,
          1785225200,
          1785225202,
          1785225204,
          1785225206,
          1785225208,
          1785225210,
          1785225212,
          1785225214,
          1785225216,
          1785225218,
          1785225220,
          1785225222,
          1785225224,
          1785225226,
          1785225228,
          1785225230,
          1785225232,
          1785225234,
          1785225236,
          1785225238,
          1785225240,
          1785225242,
          1785225244,
          1785225246,
          1785225248,
          1785225250,
          1785225252,
          1785225254,
          1785225256,
          1785225258,
          1785225260,
          1785225262,
          1785225264,
          1785225266,
          1785225268,
          1785225270,
          1785225272,
          1785225274,
          1785225276,
          1785225278,
          1785225280,
          1785225282,
          1785225284,
          1785225286,
          1785225288,
          1785225290,
          1785225292,
          1785225294,
          1785225296,
          1785225298,
          1785225300,
          1785225302,
          1785225304,
          1785225306,
          1785225308,
          1785225310,
          1785225312,
          1785225314,
          1785225316,
          1785225318,
          1785225320,
          1785225322,
          1785225324,
          1785225326,
          1785225328,
          1785225330,
          1785225332,
          1785225334,
          1785225336,
          1785225338,
          1785225340,
          1785225342,
          1785225344,
          1785225346,
          1785225348,
          1785225350,
          1785225352,
          1785225354,
          1785225357,
          1785225358,
          1785225360,
          1785225362,
          1785225364,
          1785225366,
          1785225368,
          1785225370,
          1785225372,
          1785225374,
          1785225376,
          1785225378,
          1785225380,
          1785225382,
          1785225384,
          1785225386,
          1785225388,
          1785225390,
          1785225392,
          1785225394,
          1785225396,
          1785225398,
          1785225400,
          1785225402,
          1785225404,
          1785225406,
          1785225408,
          1785225410,
          1785225412,
          1785225414,
          1785225416,
          1785225418,
          1785225420,
          1785225422,
          1785225424,
          1785225426,
          1785225428,
          1785225430,
          1785225432,
          1785225434,
          1785225436,
          1785225438,
          1785225440,
          1785225442,
          1785225444,
          1785225446,
          1785225448,
          1785225450,
          1785225452,
          1785225454,
          1785225456,
          1785225458,
          1785225460,
          1785225462,
          1785225464,
          1785225466,
          1785225468,
          1785225470,
          1785225472,
          1785225474,
          1785225476,
          1785225478,
          1785225480,
          1785225482,
          1785225484,
          1785225486,
          1785225488,
          1785225490,
          1785225492,
          1785225494,
          1785225496,
          1785225498,
          1785225500,
          1785225502,
          1785225504,
          1785225506,
          1785225508,
          1785225510,
          1785225512,
          1785225514,
          1785225516,
          1785225518,
          1785225520,
          1785225522,
          1785225524,
          1785225526,
          1785225528,
          1785225530,
          1785225532,
          1785225534,
          1785225536,
          1785225538,
          1785225540,
          1785225542,
          1785225544,
          1785225546,
          1785225548,
          1785225550,
          1785225552,
          1785225554,
          1785225556,
          1785225558,
          1785225560,
          1785225562,
          1785225564,
          1785225566,
          1785225568,
          1785225570,
          1785225572,
          1785225574,
          1785225576,
          1785225578,
          1785225580,
          1785225582,
          1785225584,
          1785225586,
          1785225588,
          1785225590,
          1785225592,
          1785225594,
          1785225596,
          1785225598,
          1785225600,
          1785225602,
          1785225604,
          1785225606,
          1785225608,
          1785225610,
          1785225612,
          1785225614,
          1785225616,
          1785225618,
          1785225620,
          1785225622,
          1785225624,
          1785225626,
          1785225628,
          1785225630,
          1785225632,
          1785225634,
          1785225636,
          1785225638,
          1785225640,
          1785225642,
          1785225644,
          1785225646,
          1785225648,
          1785225650,
          1785225652,
          1785225654,
          1785225656,
          1785225658,
          1785225660,
          1785225662,
          1785225664,
          1785225666,
          1785225668,
          1785225670,
          1785225672,
          1785225674,
          1785225676,
          1785225678,
          1785225680,
          1785225682,
          1785225684,
          1785225686,
          1785225688,
          1785225690,
          1785225692,
          1785225694,
          1785225696,
          1785225698,
          1785225700,
          1785225702,
          1785225704,
          1785225706,
          1785225708,
          1785225710,
          1785225712,
          1785225715,
          1785225716,
          1785225718,
          1785225720,
          1785225722,
          1785225724,
          1785225726,
          1785225728,
          1785225730,
          1785225732,
          1785225734,
          1785225736,
          1785225738,
          1785225740,
          1785225742,
          1785225744,
          1785225746,
          1785225748,
          1785225750,
          1785225752,
          1785225754,
          1785225756,
          1785225758,
          1785225760,
          1785225763,
          1785225765,
          1785225766,
          1785225768,
          1785225770,
          1785225772,
          1785225774,
          1785225776,
          1785225778,
          1785225780,
          1785225782,
          1785225784,
          1785225786,
          1785225788,
          1785225790,
          1785225792,
          1785225794,
          1785225796,
          1785225798,
          1785225800,
          1785225802,
          1785225804,
          1785225806,
          1785225808,
          1785225810,
          1785225812,
          1785225814,
          1785225816,
          1785225818,
          1785225820,
          1785225822,
          1785225824,
          1785225826,
          1785225828,
          1785225830,
          1785225832,
          1785225834,
          1785225836,
          1785225838,
          1785225840,
          1785225842,
          1785225844,
          1785225846,
          1785225848,
          1785225850,
          1785225852,
          1785225854,
          1785225856,
          1785225858,
          1785225860,
          1785225862,
          1785225864,
          1785225866,
          1785225868,
          1785225870,
          1785225872,
          1785225874,
          1785225876,
          1785225878,
          1785225880,
          1785225882,
          1785225884,
          1785225886,
          1785225889,
          1785225890,
          1785225892,
          1785225894,
          1785225896,
          1785225898,
          1785225900,
          1785225902,
          1785225904,
          1785225907,
          1785225908,
          1785225911,
          1785225912,
          1785225914,
          1785225916,
          1785225918,
          1785225920,
          1785225922,
          1785225924,
          1785225926,
          1785225928,
          1785225930,
          1785225932,
          1785225934,
          1785225936,
          1785225938,
          1785225940,
          1785225942,
          1785225944,
          1785225946,
          1785225948,
          1785225950,
          1785225952,
          1785225954,
          1785225956,
          1785225958,
          1785225960,
          1785225962,
          1785225964,
          1785225966,
          1785225968,
          1785225970,
          1785225972,
          1785225974,
          1785225976,
          1785225978,
          1785225980,
          1785225982,
          1785225984,
          1785225986,
          1785225988,
          1785225990,
          1785225992,
          1785225994,
          1785225996,
          1785225998,
          1785226000,
          1785226002,
          1785226004,
          1785226006,
          1785226008,
          1785226010,
          1785226012,
          1785226014,
          1785226016,
          1785226018,
          1785226020,
          1785226022,
          1785226024,
          1785226026,
          1785226028,
          1785226030,
          1785226032,
          1785226034,
          1785226036,
          1785226038,
          1785226040,
          1785226042,
          1785226044,
          1785226046,
          1785226048,
          1785226050,
          1785226052,
          1785226054,
          1785226056,
          1785226058,
          1785226060,
          1785226062,
          1785226064,
          1785226066,
          1785226068,
          1785226070,
          1785226072
        ]
      }
    }
  ]
}