{
  "type": "FeatureCollection",
  "properties": {
    "version": 3,
    "track_id": "PRNQW5VVYW5Z",
    "segment": "s003",
    "opened_at": "2026-07-26T09:31:00.563377Z",
    "closed_at": null,
    "anchor": {
      "known": true,
      "boot_id": "26",
      "mono_anchor_ms": 931818965,
      "wall_anchor_ms": 1785058200748,
      "anchored_at_t": 1785058200,
      "uncertain": false
    },
    "stats": {
      "distance_nm": 0.227,
      "point_count": 181,
      "t_start": 1785058202,
      "t_stop": 1785058584
    }
  },
  "features": [
    {
      "type": "Feature",
      "geometry": {
        "type": "LineString",
        "coordinates": [
          [
            15.2422941,
            68.5043089
          ],
          [
            15.2421226,
            68.5043185
          ],
          [
            15.2420962,
            68.5043231
          ],
          [
            15.2420926,
            68.5043165
          ],
          [
            15.2420867,
            68.5043168
          ],
          [
            15.2420675,
            68.5043171
          ],
          [
            15.2420467,
            68.5043189
          ],
          [
            15.2420095,
            68.5043232
          ],
          [
            15.2419832,
            68.5043255
          ],
          [
            15.241958,
            68.5043295
          ],
          [
            15.2419333,
            68.5043331
          ],
          [
            15.241907,
            68.5043366
          ],
          [
            15.2418826,
            68.5043388
          ],
          [
            15.2418562,
            68.5043412
          ],
          [
            15.2418295,
            68.5043434
          ],
          [
            15.2418059,
            68.5043456
          ],
          [
            15.2417825,
            68.5043465
          ],
          [
            15.2417594,
            68.5043479
          ],
          [
            15.2417374,
            68.5043489
          ],
          [
            15.2417133,
            68.5043499
          ],
          [
            15.2416876,
            68.5043509
          ],
          [
            15.2416632,
            68.5043521
          ],
          [
            15.2416342,
            68.5043527
          ],
          [
            15.24161,
            68.5043548
          ],
          [
            15.2415834,
            68.5043582
          ],
          [
            15.2415585,
            68.5043611
          ],
          [
            15.241531,
            68.5043673
          ],
          [
            15.2415092,
            68.5043728
          ],
          [
            15.2414873,
            68.5043772
          ],
          [
            15.2414615,
            68.5043842
          ],
          [
            15.2414366,
            68.5043899
          ],
          [
            15.2414118,
            68.504397
          ],
          [
            15.2413874,
            68.5044019
          ],
          [
            15.2413656,
            68.5044067
          ],
          [
            15.2413428,
            68.5044106
          ],
          [
            15.2413219,
            68.5044145
          ],
          [
            15.2412987,
            68.5044202
          ],
          [
            15.2412771,
            68.5044243
          ],
          [
            15.2412488,
            68.5044268
          ],
          [
            15.2412235,
            68.5044289
          ],
          [
            15.2412013,
            68.5044311
          ],
          [
            15.2411816,
            68.5044334
          ],
          [
            15.2411609,
            68.5044368
          ],
          [
            15.2411416,
            68.5044388
          ],
          [
            15.241122,
            68.5044406
          ],
          [
            15.2410995,
            68.5044433
          ],
          [
            15.2410811,
            68.5044459
          ],
          [
            15.241063,
            68.5044481
          ],
          [
            15.2410408,
            68.50445
          ],
          [
            15.2410199,
            68.5044522
          ],
          [
            15.241001,
            68.5044548
          ],
          [
            15.240975,
            68.5044582
          ],
          [
            15.2409518,
            68.5044608
          ],
          [
            15.2409255,
            68.5044602
          ],
          [
            15.2409015,
            68.5044596
          ],
          [
            15.2408772,
            68.5044637
          ],
          [
            15.2408558,
            68.5044697
          ],
          [
            15.2408329,
            68.5044754
          ],
          [
            15.2408115,
            68.5044807
          ],
          [
            15.2407885,
            68.504486
          ],
          [
            15.2407629,
            68.5044901
          ],
          [
            15.2407393,
            68.5044928
          ],
          [
            15.2407068,
            68.5044951
          ],
          [
            15.2406802,
            68.5044987
          ],
          [
            15.2406566,
            68.5045026
          ],
          [
            15.2406341,
            68.5045063
          ],
          [
            15.2406135,
            68.5045082
          ],
          [
            15.2405903,
            68.5045101
          ],
          [
            15.2405653,
            68.5045114
          ],
          [
            15.2405403,
            68.5045129
          ],
          [
            15.2405155,
            68.5045149
          ],
          [
            15.2404846,
            68.5045164
          ],
          [
            15.2398965,
            68.5045568
          ],
          [
            15.2404347,
            68.5045147
          ],
          [
            15.240408,
            68.5045164
          ],
          [
            15.2403865,
            68.5045164
          ],
          [
            15.2403604,
            68.5045203
          ],
          [
            15.2403352,
            68.5045232
          ],
          [
            15.2403127,
            68.5045267
          ],
          [
            15.2402896,
            68.5045295
          ],
          [
            15.240267,
            68.5045327
          ],
          [
            15.2402436,
            68.5045343
          ],
          [
            15.2402222,
            68.5045353
          ],
          [
            15.2402015,
            68.5045362
          ],
          [
            15.2401815,
            68.504537
          ],
          [
            15.2401621,
            68.5045386
          ],
          [
            15.2401419,
            68.5045386
          ],
          [
            15.2401208,
            68.5045384
          ],
          [
            15.2401009,
            68.5045386
          ],
          [
            15.2400847,
            68.5045415
          ],
          [
            15.2400627,
            68.5045414
          ],
          [
            15.2400392,
            68.5045429
          ],
          [
            15.2400099,
            68.5045484
          ],
          [
            15.2399591,
            68.5045568
          ],
          [
            15.2399089,
            68.5045581
          ],
          [
            15.2398997,
            68.5045569
          ],
          [
            15.2398965,
            68.5045568
          ],
          [
            15.2398945,
            68.5045551
          ],
          [
            15.2398906,
            68.5045548
          ],
          [
            15.2398751,
            68.5045563
          ],
          [
            15.2398592,
            68.504561
          ],
          [
            15.2398299,
            68.5045688
          ],
          [
            15.2395458,
            68.5046236
          ],
          [
            15.2395082,
            68.5046243
          ],
          [
            15.2394419,
            68.5046392
          ],
          [
            15.2394118,
            68.5046421
          ],
          [
            15.2393452,
            68.5046478
          ],
          [
            15.239305,
            68.5046519
          ],
          [
            15.2392826,
            68.5046539
          ],
          [
            15.2392255,
            68.5046653
          ],
          [
            15.2391841,
            68.5046755
          ],
          [
            15.2391453,
            68.5046847
          ],
          [
            15.2390978,
            68.5046978
          ],
          [
            15.2390604,
            68.5047113
          ],
          [
            15.2390447,
            68.504716
          ],
          [
            15.2390196,
            68.5047267
          ],
          [
            15.2389685,
            68.5047495
          ],
          [
            15.2389475,
            68.504764
          ],
          [
            15.2389095,
            68.5047877
          ],
          [
            15.2388385,
            68.5048052
          ],
          [
            15.2387693,
            68.5048234
          ],
          [
            15.2387158,
            68.504848
          ],
          [
            15.2386714,
            68.504871
          ],
          [
            15.2386282,
            68.5048962
          ],
          [
            15.2385977,
            68.5049233
          ],
          [
            15.2385656,
            68.5049493
          ],
          [
            15.2385266,
            68.5049736
          ],
          [
            15.2384892,
            68.5049971
          ],
          [
            15.2384449,
            68.5050204
          ],
          [
            15.2384206,
            68.5050408
          ],
          [
            15.2383955,
            68.5050655
          ],
          [
            15.2383595,
            68.5050878
          ],
          [
            15.2383244,
            68.5051045
          ],
          [
            15.2382458,
            68.5051309
          ],
          [
            15.2381901,
            68.5051496
          ],
          [
            15.2381352,
            68.5051684
          ],
          [
            15.2380843,
            68.5051875
          ],
          [
            15.2380472,
            68.5052022
          ],
          [
            15.2379804,
            68.5052308
          ],
          [
            15.2379193,
            68.505251
          ],
          [
            15.2378638,
            68.5052718
          ],
          [
            15.2378213,
            68.5052968
          ],
          [
            15.2377755,
            68.505321
          ],
          [
            15.2377269,
            68.5053452
          ],
          [
            15.237662,
            68.5053643
          ],
          [
            15.2376033,
            68.5053835
          ],
          [
            15.237545,
            68.5054011
          ],
          [
            15.237485,
            68.5054181
          ],
          [
            15.2374332,
            68.5054375
          ],
          [
            15.2373802,
            68.5054546
          ],
          [
            15.2373232,
            68.505473
          ],
          [
            15.2372591,
            68.5054893
          ],
          [
            15.2371956,
            68.5055056
          ],
          [
            15.2371327,
            68.5055203
          ],
          [
            15.2370683,
            68.5055354
          ],
          [
            15.2370126,
            68.5055537
          ],
          [
            15.2369574,
            68.5055737
          ],
          [
            15.2368972,
            68.5055906
          ],
          [
            15.2368362,
            68.5056094
          ],
          [
            15.2367768,
            68.5056282
          ],
          [
            15.2367214,
            68.5056492
          ],
          [
            15.2366551,
            68.505654
          ],
          [
            15.2366045,
            68.5056826
          ],
          [
            15.2365559,
            68.5057058
          ],
          [
            15.2364966,
            68.5057232
          ],
          [
            15.2364314,
            68.5057397
          ],
          [
            15.2363562,
            68.5057568
          ],
          [
            15.2362817,
            68.5057766
          ],
          [
            15.2361957,
            68.5057965
          ],
          [
            15.2361093,
            68.5058199
          ],
          [
            15.2360237,
            68.505851
          ],
          [
            15.2359459,
            68.5058806
          ],
          [
            15.2358459,
            68.505905
          ],
          [
            15.2357521,
            68.5059343
          ],
          [
            15.2356624,
            68.5059636
          ],
          [
            15.2355755,
            68.5059943
          ],
          [
            15.2354683,
            68.5060215
          ],
          [
            15.2353556,
            68.5060491
          ],
          [
            15.2352476,
            68.5060805
          ],
          [
            15.2351391,
            68.5061127
          ],
          [
            15.2350182,
            68.5061334
          ]
        ]
      },
      "properties": {
        "timestamps": [
          1785058202,
          1785058206,
          1785058208,
          1785058210,
          1785058212,
          1785058214,
          1785058216,
          1785058218,
          1785058220,
          1785058222,
          1785058224,
          1785058226,
          1785058228,
          1785058230,
          1785058232,
          1785058234,
          1785058236,
          1785058238,
          1785058240,
          1785058242,
          1785058244,
          1785058246,
          1785058248,
          1785058250,
          1785058252,
          1785058254,
          1785058256,
          1785058258,
          1785058260,
          1785058262,
          1785058264,
          1785058266,
          1785058268,
          1785058270,
          1785058272,
          1785058274,
          1785058276,
          1785058278,
          1785058280,
          1785058282,
          1785058284,
          1785058286,
          1785058288,
          1785058290,
          1785058292,
          1785058294,
          1785058296,
          1785058298,
          1785058300,
          1785058302,
          1785058304,
          1785058306,
          1785058308,
          1785058310,
          1785058312,
          1785058314,
          1785058316,
          1785058318,
          1785058320,
          1785058322,
          1785058324,
          1785058326,
          1785058328,
          1785058330,
          1785058332,
          1785058334,
          1785058336,
          1785058338,
          1785058340,
          1785058342,
          1785058344,
          1785058346,
          1785058348,
          1785058350,
          1785058352,
          1785058354,
          1785058356,
          1785058358,
          1785058360,
          1785058362,
          1785058364,
          1785058366,
          1785058368,
          1785058370,
          1785058372,
          1785058374,
          1785058376,
          1785058378,
          1785058380,
          1785058382,
          1785058384,
          1785058386,
          1785058388,
          1785058390,
          1785058392,
          1785058394,
          1785058396,
          1785058398,
          1785058400,
          1785058402,
          1785058404,
          1785058406,
          1785058428,
          1785058430,
          1785058432,
          1785058434,
          1785058436,
          1785058438,
          1785058440,
          1785058442,
          1785058444,
          1785058446,
          1785058448,
          1785058450,
          1785058452,
          1785058454,
          1785058456,
          1785058458,
          1785058460,
          1785058462,
          1785058464,
          1785058466,
          1785058468,
          1785058470,
          1785058472,
          1785058474,
          1785058476,
          1785058478,
          1785058480,
          1785058482,
          1785058484,
          1785058486,
          1785058488,
          1785058490,
          1785058492,
          1785058494,
          1785058496,
          1785058498,
          1785058500,
          1785058502,
          1785058504,
          1785058506,
          1785058508,
          1785058510,
          1785058512,
          1785058514,
          1785058516,
          1785058518,
          1785058520,
          1785058522,
          1785058524,
          1785058526,
          1785058528,
          1785058530,
          1785058532,
          1785058534,
          1785058536,
          1785058538,
          1785058540,
          1785058542,
          1785058544,
          1785058546,
          1785058548,
          1785058550,
          1785058552,
          1785058554,
          1785058556,
          1785058558,
          1785058560,
          1785058562,
          1785058564,
          1785058566,
          1785058568,
          1785058570,
          1785058572,
          1785058574,
          1785058576,
          1785058578,
          1785058580,
          1785058582,
          1785058584
        ]
      }
    }
  ]
}