{
  "version": 3,
  "type": "TrackManifest",
  "properties": {
    "id": "PRNQW5VVYW5Z",
    "name": "JTC Lofoten - 24.07.26",
    "boat": "Arctic Breeze",
    "skipper": "Skipper-OT9Px3",
    "trip_start": "2026-07-24",
    "trip_end": "2026-07-31",
    "status": "active",
    "created_at": "2026-07-23T18:45:54.954401Z",
    "stats": {
      "distance_total_nm": 10.501,
      "point_count": 3459,
      "segment_count": 1
    }
  },
  "segments": [
    {
      "id": "s001",
      "file": "16f38540c7e326a73a74a7682670fe72c559870ba7e06df924ad235cc57c5c50-s001.geojson",
      "t_start": 1784922528,
      "t_stop": 1784929644,
      "point_count": 3459,
      "distance_nm": 10.501,
      "ts_hash": "172dab2f2ad6645c",
      "anchor": {
        "known": true,
        "boot_id": "26",
        "mono_anchor_ms": 796144924,
        "wall_anchor_ms": 1784922526722,
        "anchored_at_t": 1784922526,
        "uncertain": false
      },
      "opened_at": "2026-07-24T19:49:58.979297Z",
      "closed_at": null,
      "closed": false,
      "conflict": false
    }
  ]
}