{
  "type": "FeatureCollection",
  "properties": {
    "version": 3,
    "track_id": "PRNQW5VVYW5Z",
    "segment": "s008",
    "opened_at": "2026-07-30T10:40:29.304857Z",
    "closed_at": null,
    "anchor": {
      "known": true,
      "boot_id": "26",
      "mono_anchor_ms": 1281575048,
      "wall_anchor_ms": 1785407955813,
      "anchored_at_t": 1785407955,
      "uncertain": false
    },
    "stats": {
      "distance_nm": 1.456,
      "point_count": 473,
      "t_start": 1785407963,
      "t_stop": 1785409151
    }
  },
  "features": [
    {
      "type": "Feature",
      "geometry": {
        "type": "LineString",
        "coordinates": [
          [
            16.5117212,
            69.0713908
          ],
          [
            16.5117446,
            69.0713911
          ],
          [
            16.5117442,
            69.0713901
          ],
          [
            16.5116281,
            69.0713858
          ],
          [
            16.5116058,
            69.0713749
          ],
          [
            16.5115924,
            69.0713492
          ],
          [
            16.5115937,
            69.0713271
          ],
          [
            16.5116284,
            69.0712804
          ],
          [
            16.5116427,
            69.0712485
          ],
          [
            16.5116515,
            69.0712191
          ],
          [
            16.5116765,
            69.0711941
          ],
          [
            16.5116887,
            69.0711855
          ],
          [
            16.5116878,
            69.0711736
          ],
          [
            16.5116818,
            69.0711704
          ],
          [
            16.51169,
            69.0711759
          ],
          [
            16.5116942,
            69.0711942
          ],
          [
            16.5116802,
            69.0712208
          ],
          [
            16.5116485,
            69.0712501
          ],
          [
            16.5115982,
            69.0712792
          ],
          [
            16.5115254,
            69.0713024
          ],
          [
            16.5114329,
            69.071316
          ],
          [
            16.5113287,
            69.0713226
          ],
          [
            16.5112189,
            69.0713231
          ],
          [
            16.5111068,
            69.0713166
          ],
          [
            16.5109981,
            69.0713026
          ],
          [
            16.5108988,
            69.0712849
          ],
          [
            16.510807,
            69.071265
          ],
          [
            16.5107253,
            69.0712482
          ],
          [
            16.5106513,
            69.0712251
          ],
          [
            16.5105867,
            69.0711994
          ],
          [
            16.5105209,
            69.071174
          ],
          [
            16.5104564,
            69.0711489
          ],
          [
            16.5103949,
            69.0711243
          ],
          [
            16.5103345,
            69.0711002
          ],
          [
            16.5102769,
            69.0710763
          ],
          [
            16.5102214,
            69.0710521
          ],
          [
            16.5101659,
            69.0710295
          ],
          [
            16.5101138,
            69.0710066
          ],
          [
            16.5100637,
            69.0709829
          ],
          [
            16.5100166,
            69.0709591
          ],
          [
            16.509966,
            69.0709351
          ],
          [
            16.5099252,
            69.0709125
          ],
          [
            16.5098846,
            69.07089
          ],
          [
            16.5098395,
            69.0708697
          ],
          [
            16.5097957,
            69.0708492
          ],
          [
            16.5097485,
            69.0708291
          ],
          [
            16.509695,
            69.0708106
          ],
          [
            16.5096418,
            69.0707914
          ],
          [
            16.5095934,
            69.0707726
          ],
          [
            16.5095413,
            69.0707553
          ],
          [
            16.5094957,
            69.0707353
          ],
          [
            16.5094498,
            69.0707158
          ],
          [
            16.5094024,
            69.0706972
          ],
          [
            16.5093502,
            69.0706824
          ],
          [
            16.5093012,
            69.0706654
          ],
          [
            16.5092502,
            69.070649
          ],
          [
            16.5091965,
            69.0706344
          ],
          [
            16.5091423,
            69.0706197
          ],
          [
            16.5090901,
            69.0706034
          ],
          [
            16.5090343,
            69.0705884
          ],
          [
            16.5089809,
            69.0705745
          ],
          [
            16.5089278,
            69.0705597
          ],
          [
            16.5088734,
            69.0705455
          ],
          [
            16.5088188,
            69.070531
          ],
          [
            16.5087618,
            69.0705163
          ],
          [
            16.5087051,
            69.0705025
          ],
          [
            16.5086518,
            69.0704887
          ],
          [
            16.5085996,
            69.0704747
          ],
          [
            16.508547,
            69.07046
          ],
          [
            16.5084954,
            69.0704465
          ],
          [
            16.5084417,
            69.0704321
          ],
          [
            16.5083857,
            69.0704169
          ],
          [
            16.5083366,
            69.0704002
          ],
          [
            16.5082973,
            69.0703839
          ],
          [
            16.5082547,
            69.0703638
          ],
          [
            16.5082045,
            69.0703436
          ],
          [
            16.5081619,
            69.0703226
          ],
          [
            16.5081179,
            69.0702998
          ],
          [
            16.5080709,
            69.0702744
          ],
          [
            16.5080216,
            69.0702486
          ],
          [
            16.5079724,
            69.0702227
          ],
          [
            16.507918,
            69.0701972
          ],
          [
            16.507859,
            69.0701719
          ],
          [
            16.5077981,
            69.0701468
          ],
          [
            16.5077318,
            69.07012
          ],
          [
            16.5076623,
            69.0700929
          ],
          [
            16.5075894,
            69.0700657
          ],
          [
            16.5075142,
            69.0700379
          ],
          [
            16.5074377,
            69.0700093
          ],
          [
            16.5073588,
            69.0699799
          ],
          [
            16.5072774,
            69.0699503
          ],
          [
            16.5071982,
            69.0699192
          ],
          [
            16.507119,
            69.0698873
          ],
          [
            16.5070417,
            69.0698546
          ],
          [
            16.5069614,
            69.0698217
          ],
          [
            16.5068824,
            69.0697887
          ],
          [
            16.5068023,
            69.069755
          ],
          [
            16.5067227,
            69.0697216
          ],
          [
            16.5066418,
            69.0696882
          ],
          [
            16.506561,
            69.0696543
          ],
          [
            16.5064826,
            69.0696199
          ],
          [
            16.506403,
            69.0695856
          ],
          [
            16.5063172,
            69.0695526
          ],
          [
            16.5062273,
            69.0695207
          ],
          [
            16.5061325,
            69.0694898
          ],
          [
            16.5060361,
            69.0694593
          ],
          [
            16.5059342,
            69.0694293
          ],
          [
            16.5058338,
            69.0693999
          ],
          [
            16.5057349,
            69.0693703
          ],
          [
            16.5056375,
            69.0693398
          ],
          [
            16.5055388,
            69.069309
          ],
          [
            16.5054382,
            69.0692794
          ],
          [
            16.5053335,
            69.0692512
          ],
          [
            16.5052267,
            69.0692235
          ],
          [
            16.5051205,
            69.0691946
          ],
          [
            16.5050128,
            69.0691667
          ],
          [
            16.5049042,
            69.0691395
          ],
          [
            16.5047925,
            69.069113
          ],
          [
            16.5046816,
            69.0690872
          ],
          [
            16.5045699,
            69.0690608
          ],
          [
            16.5044585,
            69.0690334
          ],
          [
            16.5043512,
            69.069004
          ],
          [
            16.504245,
            69.0689743
          ],
          [
            16.5041424,
            69.0689437
          ],
          [
            16.5040387,
            69.0689143
          ],
          [
            16.5039479,
            69.0688807
          ],
          [
            16.5038651,
            69.0688441
          ],
          [
            16.503781,
            69.0688082
          ],
          [
            16.5036941,
            69.0687728
          ],
          [
            16.5036153,
            69.0687355
          ],
          [
            16.503545,
            69.0686964
          ],
          [
            16.5034748,
            69.0686574
          ],
          [
            16.503406,
            69.0686183
          ],
          [
            16.5033328,
            69.0685798
          ],
          [
            16.5032571,
            69.068542
          ],
          [
            16.5031764,
            69.0685062
          ],
          [
            16.5030923,
            69.0684707
          ],
          [
            16.5030068,
            69.0684356
          ],
          [
            16.5029177,
            69.0684011
          ],
          [
            16.502829,
            69.0683665
          ],
          [
            16.5027401,
            69.0683317
          ],
          [
            16.5026493,
            69.0682982
          ],
          [
            16.502556,
            69.0682647
          ],
          [
            16.5024624,
            69.06823
          ],
          [
            16.5023666,
            69.0681965
          ],
          [
            16.5022717,
            69.0681641
          ],
          [
            16.502175,
            69.068132
          ],
          [
            16.5020803,
            69.0680991
          ],
          [
            16.5019808,
            69.0680678
          ],
          [
            16.5018843,
            69.068036
          ],
          [
            16.5017825,
            69.068005
          ],
          [
            16.50168,
            69.0679742
          ],
          [
            16.5015705,
            69.0679456
          ],
          [
            16.5014636,
            69.0679154
          ],
          [
            16.501358,
            69.0678848
          ],
          [
            16.501257,
            69.0678538
          ],
          [
            16.501156,
            69.0678226
          ],
          [
            16.5010566,
            69.0677903
          ],
          [
            16.500959,
            69.0677579
          ],
          [
            16.5008612,
            69.0677252
          ],
          [
            16.5007642,
            69.0676923
          ],
          [
            16.5006692,
            69.0676589
          ],
          [
            16.5005754,
            69.0676248
          ],
          [
            16.500481,
            69.0675904
          ],
          [
            16.5003893,
            69.0675559
          ],
          [
            16.5003025,
            69.0675203
          ],
          [
            16.5002146,
            69.067485
          ],
          [
            16.5001229,
            69.0674513
          ],
          [
            16.5000256,
            69.0674186
          ],
          [
            16.4999233,
            69.0673873
          ],
          [
            16.4998129,
            69.06736
          ],
          [
            16.4996933,
            69.0673363
          ],
          [
            16.4995768,
            69.0673114
          ],
          [
            16.4994619,
            69.0672849
          ],
          [
            16.4993505,
            69.0672578
          ],
          [
            16.4992368,
            69.0672318
          ],
          [
            16.4991168,
            69.0672082
          ],
          [
            16.4989908,
            69.0671866
          ],
          [
            16.4988647,
            69.0671644
          ],
          [
            16.4987382,
            69.0671422
          ],
          [
            16.4986098,
            69.06712
          ],
          [
            16.49848,
            69.0670982
          ],
          [
            16.4983488,
            69.0670771
          ],
          [
            16.4982166,
            69.0670556
          ],
          [
            16.498086,
            69.0670332
          ],
          [
            16.4979549,
            69.0670113
          ],
          [
            16.4978214,
            69.0669905
          ],
          [
            16.4976887,
            69.0669692
          ],
          [
            16.4975552,
            69.0669482
          ],
          [
            16.4974225,
            69.0669276
          ],
          [
            16.4972891,
            69.0669074
          ],
          [
            16.4971541,
            69.0668879
          ],
          [
            16.4970166,
            69.0668695
          ],
          [
            16.4968776,
            69.066852
          ],
          [
            16.4967396,
            69.0668318
          ],
          [
            16.4966026,
            69.066812
          ],
          [
            16.4964638,
            69.066793
          ],
          [
            16.4963246,
            69.0667754
          ],
          [
            16.4961828,
            69.0667587
          ],
          [
            16.4960414,
            69.0667428
          ],
          [
            16.4958993,
            69.0667271
          ],
          [
            16.4957551,
            69.0667134
          ],
          [
            16.495615,
            69.0666983
          ],
          [
            16.4954732,
            69.0666846
          ],
          [
            16.4953293,
            69.0666715
          ],
          [
            16.4951838,
            69.0666597
          ],
          [
            16.4950374,
            69.0666486
          ],
          [
            16.4948901,
            69.0666384
          ],
          [
            16.4947427,
            69.066628
          ],
          [
            16.4945954,
            69.0666196
          ],
          [
            16.4944489,
            69.06661
          ],
          [
            16.4943,
            69.0665989
          ],
          [
            16.4941535,
            69.0665864
          ],
          [
            16.4940102,
            69.0665707
          ],
          [
            16.4938648,
            69.0665576
          ],
          [
            16.493719,
            69.0665443
          ],
          [
            16.493574,
            69.0665299
          ],
          [
            16.4934302,
            69.0665128
          ],
          [
            16.4932901,
            69.0664937
          ],
          [
            16.4931517,
            69.0664724
          ],
          [
            16.4930193,
            69.0664478
          ],
          [
            16.4928934,
            69.0664201
          ],
          [
            16.4927727,
            69.0663897
          ],
          [
            16.4926549,
            69.0663589
          ],
          [
            16.4925381,
            69.0663278
          ],
          [
            16.4924233,
            69.0662959
          ],
          [
            16.4923059,
            69.0662641
          ],
          [
            16.4921932,
            69.0662312
          ],
          [
            16.4920791,
            69.0661994
          ],
          [
            16.4919631,
            69.0661678
          ],
          [
            16.4918419,
            69.066137
          ],
          [
            16.4917188,
            69.0661058
          ],
          [
            16.4915922,
            69.0660743
          ],
          [
            16.4914672,
            69.0660423
          ],
          [
            16.4913403,
            69.0660099
          ],
          [
            16.4912157,
            69.0659766
          ],
          [
            16.4910902,
            69.0659423
          ],
          [
            16.4909474,
            69.0659055
          ],
          [
            16.4908123,
            69.0658729
          ],
          [
            16.4906755,
            69.0658382
          ],
          [
            16.490543,
            69.0658014
          ],
          [
            16.4904092,
            69.0657634
          ],
          [
            16.4902662,
            69.0657291
          ],
          [
            16.4901268,
            69.065696
          ],
          [
            16.4899882,
            69.0656635
          ],
          [
            16.4898451,
            69.0656352
          ],
          [
            16.4897079,
            69.0656045
          ],
          [
            16.4895711,
            69.0655741
          ],
          [
            16.4894359,
            69.0655413
          ],
          [
            16.4893089,
            69.0655063
          ],
          [
            16.4891925,
            69.0654662
          ],
          [
            16.4890845,
            69.0654269
          ],
          [
            16.4889795,
            69.0653886
          ],
          [
            16.488876,
            69.0653461
          ],
          [
            16.4887591,
            69.0653069
          ],
          [
            16.488711,
            69.0652551
          ],
          [
            16.4885772,
            69.065216
          ],
          [
            16.4884566,
            69.0651769
          ],
          [
            16.4883493,
            69.0651365
          ],
          [
            16.4882374,
            69.065097
          ],
          [
            16.4881254,
            69.0650576
          ],
          [
            16.4880222,
            69.065017
          ],
          [
            16.4879308,
            69.0649721
          ],
          [
            16.4878531,
            69.0649294
          ],
          [
            16.4878,
            69.0648781
          ],
          [
            16.4876712,
            69.0648382
          ],
          [
            16.4875483,
            69.0647984
          ],
          [
            16.4874423,
            69.0647556
          ],
          [
            16.4873634,
            69.0647033
          ],
          [
            16.4872584,
            69.0646594
          ],
          [
            16.4871538,
            69.0646181
          ],
          [
            16.4870558,
            69.0645771
          ],
          [
            16.486957,
            69.0645309
          ],
          [
            16.4868726,
            69.0644832
          ],
          [
            16.4868063,
            69.0644326
          ],
          [
            16.486742,
            69.0643806
          ],
          [
            16.4866707,
            69.0643311
          ],
          [
            16.4865979,
            69.0642805
          ],
          [
            16.4865435,
            69.0642291
          ],
          [
            16.4864761,
            69.064179
          ],
          [
            16.486392,
            69.0641313
          ],
          [
            16.4862791,
            69.0640888
          ],
          [
            16.4861779,
            69.0640398
          ],
          [
            16.486123,
            69.0639815
          ],
          [
            16.4860373,
            69.0639313
          ],
          [
            16.4859416,
            69.0638813
          ],
          [
            16.4858579,
            69.0638288
          ],
          [
            16.4857782,
            69.0637719
          ],
          [
            16.4856992,
            69.0637186
          ],
          [
            16.485617,
            69.0636636
          ],
          [
            16.4855342,
            69.0636078
          ],
          [
            16.4854306,
            69.063556
          ],
          [
            16.4853363,
            69.063505
          ],
          [
            16.4852634,
            69.0634512
          ],
          [
            16.4851728,
            69.0633982
          ],
          [
            16.485095,
            69.0633434
          ],
          [
            16.4850013,
            69.0632933
          ],
          [
            16.4848908,
            69.0632472
          ],
          [
            16.4847974,
            69.0632123
          ],
          [
            16.4846835,
            69.0631651
          ],
          [
            16.4845757,
            69.0631165
          ],
          [
            16.4844712,
            69.0630678
          ],
          [
            16.4843634,
            69.0630194
          ],
          [
            16.4842485,
            69.0629732
          ],
          [
            16.4841183,
            69.062932
          ],
          [
            16.4839808,
            69.0628935
          ],
          [
            16.4838459,
            69.062853
          ],
          [
            16.4837172,
            69.0628101
          ],
          [
            16.4835905,
            69.0627665
          ],
          [
            16.483465,
            69.0627223
          ],
          [
            16.4833406,
            69.0626782
          ],
          [
            16.4832135,
            69.0626344
          ],
          [
            16.4830872,
            69.0625907
          ],
          [
            16.4829576,
            69.0625478
          ],
          [
            16.4828271,
            69.0625046
          ],
          [
            16.4827003,
            69.0624613
          ],
          [
            16.4825735,
            69.0624176
          ],
          [
            16.4824473,
            69.0623735
          ],
          [
            16.4823218,
            69.0623297
          ],
          [
            16.4821944,
            69.0622862
          ],
          [
            16.4820646,
            69.0622435
          ],
          [
            16.4819387,
            69.0622001
          ],
          [
            16.4818085,
            69.062158
          ],
          [
            16.4816757,
            69.0621161
          ],
          [
            16.4815435,
            69.0620741
          ],
          [
            16.4814173,
            69.0620304
          ],
          [
            16.4812936,
            69.0619858
          ],
          [
            16.4811697,
            69.0619414
          ],
          [
            16.4810446,
            69.0618967
          ],
          [
            16.4809183,
            69.0618524
          ],
          [
            16.4807984,
            69.0618072
          ],
          [
            16.4806757,
            69.0617614
          ],
          [
            16.4805582,
            69.0617148
          ],
          [
            16.4804389,
            69.0616685
          ],
          [
            16.4803185,
            69.0616233
          ],
          [
            16.4801937,
            69.0615791
          ],
          [
            16.4800643,
            69.0615359
          ],
          [
            16.4799352,
            69.0614925
          ],
          [
            16.4798114,
            69.0614473
          ],
          [
            16.4796979,
            69.0613994
          ],
          [
            16.479582,
            69.0613521
          ],
          [
            16.4794633,
            69.0613054
          ],
          [
            16.4793449,
            69.0612586
          ],
          [
            16.4792276,
            69.0612115
          ],
          [
            16.4791071,
            69.0611654
          ],
          [
            16.478985,
            69.0611201
          ],
          [
            16.4788552,
            69.0610772
          ],
          [
            16.4787245,
            69.0610348
          ],
          [
            16.4785948,
            69.0609923
          ],
          [
            16.4784661,
            69.0609493
          ],
          [
            16.4783355,
            69.0609064
          ],
          [
            16.4782052,
            69.0608636
          ],
          [
            16.4780729,
            69.0608224
          ],
          [
            16.4779383,
            69.0607814
          ],
          [
            16.4778037,
            69.0607406
          ],
          [
            16.4776652,
            69.0607013
          ],
          [
            16.4775272,
            69.0606618
          ],
          [
            16.4773887,
            69.060623
          ],
          [
            16.4772541,
            69.0605824
          ],
          [
            16.477116,
            69.0605433
          ],
          [
            16.4769802,
            69.0605035
          ],
          [
            16.4768449,
            69.0604634
          ],
          [
            16.4767091,
            69.0604233
          ],
          [
            16.4765702,
            69.060384
          ],
          [
            16.4764306,
            69.0603454
          ],
          [
            16.4762916,
            69.0603068
          ],
          [
            16.4761488,
            69.0602693
          ],
          [
            16.4760043,
            69.0602326
          ],
          [
            16.4758571,
            69.0601975
          ],
          [
            16.4757034,
            69.0601653
          ],
          [
            16.4755488,
            69.0601339
          ],
          [
            16.4753946,
            69.0601015
          ],
          [
            16.4752424,
            69.0600686
          ],
          [
            16.475089,
            69.0600358
          ],
          [
            16.4749363,
            69.0600029
          ],
          [
            16.4747842,
            69.0599698
          ],
          [
            16.4746339,
            69.0599362
          ],
          [
            16.4744852,
            69.059902
          ],
          [
            16.4743344,
            69.0598686
          ],
          [
            16.4741846,
            69.0598349
          ],
          [
            16.4740351,
            69.0598008
          ],
          [
            16.4738873,
            69.0597664
          ],
          [
            16.4737392,
            69.0597313
          ],
          [
            16.4735955,
            69.059695
          ],
          [
            16.4734498,
            69.0596595
          ],
          [
            16.4732995,
            69.0596261
          ],
          [
            16.473139,
            69.0595983
          ],
          [
            16.4729844,
            69.0595678
          ],
          [
            16.4728388,
            69.0595326
          ],
          [
            16.4726952,
            69.0594963
          ],
          [
            16.4725541,
            69.0594588
          ],
          [
            16.4724065,
            69.0594243
          ],
          [
            16.4722627,
            69.0593878
          ],
          [
            16.4721158,
            69.0593527
          ],
          [
            16.4719713,
            69.0593165
          ],
          [
            16.4718222,
            69.0592826
          ],
          [
            16.4716742,
            69.0592477
          ],
          [
            16.4715237,
            69.0592142
          ],
          [
            16.4713731,
            69.0591815
          ],
          [
            16.4712175,
            69.0591474
          ],
          [
            16.4710674,
            69.0591138
          ],
          [
            16.4709232,
            69.0590774
          ],
          [
            16.4707772,
            69.0590412
          ],
          [
            16.4706339,
            69.0590046
          ],
          [
            16.4704865,
            69.0589699
          ],
          [
            16.4703382,
            69.0589348
          ],
          [
            16.470192,
            69.0588992
          ],
          [
            16.4700454,
            69.0588636
          ],
          [
            16.4699013,
            69.0588263
          ],
          [
            16.4697578,
            69.0587896
          ],
          [
            16.4696166,
            69.0587508
          ],
          [
            16.4694758,
            69.0587127
          ],
          [
            16.4693334,
            69.0586748
          ],
          [
            16.4691919,
            69.0586367
          ],
          [
            16.4690482,
            69.0585996
          ],
          [
            16.4688989,
            69.0585637
          ],
          [
            16.4687523,
            69.0585293
          ],
          [
            16.468606,
            69.0584941
          ],
          [
            16.4684614,
            69.0584577
          ],
          [
            16.4683182,
            69.0584207
          ],
          [
            16.4681768,
            69.0583836
          ],
          [
            16.4680341,
            69.0583461
          ],
          [
            16.4678891,
            69.0583096
          ],
          [
            16.4677483,
            69.0582715
          ],
          [
            16.4676113,
            69.0582319
          ],
          [
            16.4674796,
            69.0581907
          ],
          [
            16.4673467,
            69.058149
          ],
          [
            16.4672145,
            69.058107
          ],
          [
            16.4670895,
            69.0580632
          ],
          [
            16.4669675,
            69.0580181
          ],
          [
            16.4668471,
            69.0579725
          ],
          [
            16.4667288,
            69.0579261
          ],
          [
            16.4666102,
            69.0578804
          ],
          [
            16.4664924,
            69.0578341
          ],
          [
            16.4663813,
            69.0577858
          ],
          [
            16.4662768,
            69.0577362
          ],
          [
            16.4661781,
            69.0576858
          ],
          [
            16.4660805,
            69.057635
          ],
          [
            16.4659846,
            69.0575835
          ],
          [
            16.4658795,
            69.0575342
          ],
          [
            16.4657739,
            69.0574848
          ],
          [
            16.4656804,
            69.0574335
          ],
          [
            16.4655861,
            69.0573822
          ],
          [
            16.4654877,
            69.0573316
          ],
          [
            16.4653963,
            69.0572805
          ],
          [
            16.4653028,
            69.0572288
          ],
          [
            16.4652104,
            69.0571771
          ],
          [
            16.4651062,
            69.0571281
          ],
          [
            16.4650006,
            69.05708
          ],
          [
            16.4649005,
            69.0570297
          ],
          [
            16.4648053,
            69.0569781
          ],
          [
            16.4647177,
            69.0569274
          ],
          [
            16.4646305,
            69.0568755
          ],
          [
            16.4645482,
            69.0568213
          ],
          [
            16.464462,
            69.0567689
          ],
          [
            16.4643736,
            69.0567175
          ],
          [
            16.464284,
            69.0566663
          ],
          [
            16.4641941,
            69.0566144
          ],
          [
            16.4641051,
            69.0565616
          ],
          [
            16.4640189,
            69.0565087
          ],
          [
            16.4639309,
            69.0564574
          ],
          [
            16.4638447,
            69.0564054
          ],
          [
            16.4637597,
            69.0563515
          ],
          [
            16.4636779,
            69.0562974
          ],
          [
            16.4635951,
            69.0562442
          ],
          [
            16.4635131,
            69.0561913
          ],
          [
            16.4634326,
            69.0561375
          ],
          [
            16.4633562,
            69.0560828
          ],
          [
            16.4632762,
            69.0560289
          ],
          [
            16.4631945,
            69.0559762
          ],
          [
            16.4631062,
            69.0559241
          ],
          [
            16.4630154,
            69.0558725
          ],
          [
            16.4629189,
            69.0558216
          ]
        ]
      },
      "properties": {
        "timestamps": [
          1785407963,
          1785407965,
          1785407966,
          1785408213,
          1785408215,
          1785408217,
          1785408218,
          1785408221,
          1785408223,
          1785408225,
          1785408227,
          1785408229,
          1785408231,
          1785408233,
          1785408235,
          1785408237,
          1785408239,
          1785408241,
          1785408243,
          1785408245,
          1785408247,
          1785408249,
          1785408251,
          1785408253,
          1785408255,
          1785408257,
          1785408259,
          1785408261,
          1785408263,
          1785408265,
          1785408267,
          1785408269,
          1785408271,
          1785408273,
          1785408275,
          1785408277,
          1785408279,
          1785408281,
          1785408283,
          1785408285,
          1785408287,
          1785408289,
          1785408291,
          1785408293,
          1785408295,
          1785408297,
          1785408299,
          1785408301,
          1785408303,
          1785408305,
          1785408307,
          1785408309,
          1785408311,
          1785408313,
          1785408315,
          1785408317,
          1785408319,
          1785408321,
          1785408323,
          1785408325,
          1785408327,
          1785408329,
          1785408331,
          1785408333,
          1785408335,
          1785408337,
          1785408339,
          1785408341,
          1785408343,
          1785408345,
          1785408347,
          1785408349,
          1785408351,
          1785408353,
          1785408355,
          1785408357,
          1785408359,
          1785408361,
          1785408363,
          1785408365,
          1785408367,
          1785408369,
          1785408371,
          1785408373,
          1785408375,
          1785408377,
          1785408379,
          1785408381,
          1785408383,
          1785408385,
          1785408387,
          1785408389,
          1785408391,
          1785408393,
          1785408395,
          1785408397,
          1785408399,
          1785408401,
          1785408403,
          1785408405,
          1785408407,
          1785408409,
          1785408411,
          1785408413,
          1785408415,
          1785408417,
          1785408419,
          1785408421,
          1785408423,
          1785408425,
          1785408427,
          1785408429,
          1785408431,
          1785408433,
          1785408435,
          1785408437,
          1785408439,
          1785408441,
          1785408443,
          1785408445,
          1785408447,
          1785408449,
          1785408451,
          1785408453,
          1785408455,
          1785408457,
          1785408459,
          1785408461,
          1785408463,
          1785408465,
          1785408467,
          1785408469,
          1785408471,
          1785408473,
          1785408475,
          1785408477,
          1785408479,
          1785408481,
          1785408483,
          1785408485,
          1785408487,
          1785408489,
          1785408491,
          1785408493,
          1785408495,
          1785408497,
          1785408499,
          1785408501,
          1785408503,
          1785408505,
          1785408507,
          1785408509,
          1785408511,
          1785408513,
          1785408515,
          1785408517,
          1785408519,
          1785408521,
          1785408523,
          1785408525,
          1785408527,
          1785408529,
          1785408531,
          1785408533,
          1785408535,
          1785408537,
          1785408539,
          1785408541,
          1785408543,
          1785408545,
          1785408547,
          1785408549,
          1785408551,
          1785408553,
          1785408555,
          1785408557,
          1785408559,
          1785408561,
          1785408563,
          1785408565,
          1785408567,
          1785408569,
          1785408571,
          1785408573,
          1785408575,
          1785408577,
          1785408579,
          1785408581,
          1785408583,
          1785408585,
          1785408587,
          1785408589,
          1785408591,
          1785408593,
          1785408595,
          1785408597,
          1785408599,
          1785408601,
          1785408603,
          1785408605,
          1785408607,
          1785408609,
          1785408611,
          1785408613,
          1785408615,
          1785408617,
          1785408619,
          1785408621,
          1785408623,
          1785408625,
          1785408627,
          1785408629,
          1785408631,
          1785408633,
          1785408635,
          1785408637,
          1785408639,
          1785408641,
          1785408643,
          1785408645,
          1785408647,
          1785408649,
          1785408651,
          1785408653,
          1785408655,
          1785408657,
          1785408659,
          1785408661,
          1785408663,
          1785408665,
          1785408667,
          1785408669,
          1785408671,
          1785408673,
          1785408675,
          1785408677,
          1785408679,
          1785408681,
          1785408683,
          1785408685,
          1785408687,
          1785408689,
          1785408691,
          1785408693,
          1785408695,
          1785408697,
          1785408699,
          1785408701,
          1785408703,
          1785408705,
          1785408707,
          1785408709,
          1785408711,
          1785408713,
          1785408715,
          1785408717,
          1785408719,
          1785408721,
          1785408723,
          1785408725,
          1785408727,
          1785408729,
          1785408731,
          1785408732,
          1785408734,
          1785408736,
          1785408739,
          1785408741,
          1785408743,
          1785408745,
          1785408747,
          1785408748,
          1785408751,
          1785408753,
          1785408755,
          1785408757,
          1785408759,
          1785408761,
          1785408763,
          1785408765,
          1785408767,
          1785408769,
          1785408771,
          1785408773,
          1785408775,
          1785408777,
          1785408779,
          1785408781,
          1785408783,
          1785408785,
          1785408787,
          1785408789,
          1785408791,
          1785408793,
          1785408795,
          1785408797,
          1785408799,
          1785408801,
          1785408803,
          1785408805,
          1785408807,
          1785408809,
          1785408811,
          1785408813,
          1785408815,
          1785408817,
          1785408819,
          1785408821,
          1785408823,
          1785408825,
          1785408827,
          1785408829,
          1785408831,
          1785408833,
          1785408835,
          1785408837,
          1785408839,
          1785408841,
          1785408843,
          1785408845,
          1785408847,
          1785408849,
          1785408851,
          1785408853,
          1785408855,
          1785408857,
          1785408859,
          1785408861,
          1785408863,
          1785408865,
          1785408867,
          1785408869,
          1785408871,
          1785408873,
          1785408875,
          1785408877,
          1785408879,
          1785408881,
          1785408883,
          1785408885,
          1785408887,
          1785408889,
          1785408891,
          1785408893,
          1785408895,
          1785408897,
          1785408899,
          1785408901,
          1785408903,
          1785408905,
          1785408907,
          1785408909,
          1785408911,
          1785408913,
          1785408915,
          1785408917,
          1785408919,
          1785408921,
          1785408923,
          1785408925,
          1785408927,
          1785408929,
          1785408931,
          1785408933,
          1785408935,
          1785408937,
          1785408939,
          1785408941,
          1785408943,
          1785408945,
          1785408947,
          1785408949,
          1785408951,
          1785408953,
          1785408955,
          1785408957,
          1785408959,
          1785408961,
          1785408963,
          1785408965,
          1785408967,
          1785408969,
          1785408971,
          1785408973,
          1785408975,
          1785408977,
          1785408979,
          1785408981,
          1785408983,
          1785408985,
          1785408987,
          1785408989,
          1785408991,
          1785408993,
          1785408995,
          1785408997,
          1785408999,
          1785409001,
          1785409003,
          1785409005,
          1785409007,
          1785409009,
          1785409011,
          1785409013,
          1785409015,
          1785409017,
          1785409019,
          1785409021,
          1785409023,
          1785409025,
          1785409027,
          1785409029,
          1785409031,
          1785409033,
          1785409035,
          1785409037,
          1785409039,
          1785409041,
          1785409043,
          1785409045,
          1785409047,
          1785409049,
          1785409051,
          1785409053,
          1785409055,
          1785409057,
          1785409059,
          1785409061,
          1785409063,
          1785409065,
          1785409067,
          1785409069,
          1785409071,
          1785409073,
          1785409075,
          1785409077,
          1785409079,
          1785409081,
          1785409083,
          1785409085,
          1785409087,
          1785409089,
          1785409091,
          1785409093,
          1785409095,
          1785409097,
          1785409099,
          1785409101,
          1785409103,
          1785409105,
          1785409107,
          1785409109,
          1785409111,
          1785409113,
          1785409115,
          1785409117,
          1785409119,
          1785409121,
          1785409123,
          1785409125,
          1785409127,
          1785409129,
          1785409131,
          1785409133,
          1785409135,
          1785409137,
          1785409139,
          1785409141,
          1785409143,
          1785409145,
          1785409147,
          1785409149,
          1785409151
        ]
      }
    }
  ]
}