{
  "type": "FeatureCollection",
  "properties": {
    "version": 3,
    "track_id": "PRNQW5VVYW5Z",
    "segment": "s005",
    "opened_at": "2026-07-27T11:07:29.675756Z",
    "closed_at": null,
    "anchor": {
      "known": true,
      "boot_id": "26",
      "mono_anchor_ms": 1024040676,
      "wall_anchor_ms": 1785150422459,
      "anchored_at_t": 1785150422,
      "uncertain": false
    },
    "stats": {
      "distance_nm": 0.281,
      "point_count": 216,
      "t_start": 1785150422,
      "t_stop": 1785150961
    }
  },
  "features": [
    {
      "type": "Feature",
      "geometry": {
        "type": "LineString",
        "coordinates": [
          [
            14.7857333,
            68.2481356
          ],
          [
            14.7855099,
            68.2480253
          ],
          [
            14.7855168,
            68.2480223
          ],
          [
            14.7855153,
            68.2480231
          ],
          [
            14.7855181,
            68.2480237
          ],
          [
            14.7857725,
            68.248249
          ],
          [
            14.7855475,
            68.2480354
          ],
          [
            14.7855617,
            68.2480378
          ],
          [
            14.7855784,
            68.2480413
          ],
          [
            14.7855977,
            68.2480413
          ],
          [
            14.7856307,
            68.2480419
          ],
          [
            14.7856906,
            68.2480563
          ],
          [
            14.7857232,
            68.2480844
          ],
          [
            14.7857333,
            68.2481065
          ],
          [
            14.7857354,
            68.2481356
          ],
          [
            14.7857383,
            68.2481571
          ],
          [
            14.7857411,
            68.2481764
          ],
          [
            14.7857316,
            68.2481926
          ],
          [
            14.7858628,
            68.2482968
          ],
          [
            14.7857425,
            68.2482049
          ],
          [
            14.7857417,
            68.2482109
          ],
          [
            14.7857455,
            68.2482171
          ],
          [
            14.7858037,
            68.248254
          ],
          [
            14.7858296,
            68.2482468
          ],
          [
            14.7858283,
            68.2482597
          ],
          [
            14.7858227,
            68.2482649
          ],
          [
            14.7858073,
            68.2482691
          ],
          [
            14.7858019,
            68.2482743
          ],
          [
            14.7858353,
            68.2483057
          ],
          [
            14.7858628,
            68.2483153
          ],
          [
            14.7858851,
            68.2483158
          ],
          [
            14.7858947,
            68.2483123
          ],
          [
            14.7859054,
            68.2483115
          ],
          [
            14.7860293,
            68.2482711
          ],
          [
            14.7860271,
            68.2482589
          ],
          [
            14.7860237,
            68.2482499
          ],
          [
            14.7860206,
            68.2482439
          ],
          [
            14.7860185,
            68.2482345
          ],
          [
            14.7860021,
            68.2481385
          ],
          [
            14.7860157,
            68.2482233
          ],
          [
            14.7860153,
            68.2482184
          ],
          [
            14.7860171,
            68.248213
          ],
          [
            14.7860179,
            68.2482076
          ],
          [
            14.7860194,
            68.2482004
          ],
          [
            14.7860219,
            68.2481949
          ],
          [
            14.7860191,
            68.248188
          ],
          [
            14.7860213,
            68.2481817
          ],
          [
            14.7860218,
            68.248177
          ],
          [
            14.7860199,
            68.2481706
          ],
          [
            14.7860164,
            68.2481654
          ],
          [
            14.7860093,
            68.2481604
          ],
          [
            14.7860022,
            68.2481554
          ],
          [
            14.7859964,
            68.2481501
          ],
          [
            14.7859926,
            68.2481448
          ],
          [
            14.7859903,
            68.2481384
          ],
          [
            14.7860021,
            68.2481342
          ],
          [
            14.7859967,
            68.2481304
          ],
          [
            14.7859986,
            68.248135
          ],
          [
            14.7859893,
            68.2481488
          ],
          [
            14.7858627,
            68.2481578
          ],
          [
            14.7858933,
            68.2481858
          ],
          [
            14.7859949,
            68.2482001
          ],
          [
            14.7860994,
            68.248175
          ],
          [
            14.7861107,
            68.2481385
          ],
          [
            14.7860712,
            68.2481115
          ],
          [
            14.7860526,
            68.248119
          ],
          [
            14.7860349,
            68.2481167
          ],
          [
            14.7860163,
            68.2481125
          ],
          [
            14.7858565,
            68.2481093
          ],
          [
            14.785817,
            68.248112
          ],
          [
            14.7852215,
            68.2480595
          ],
          [
            14.7857232,
            68.2481361
          ],
          [
            14.7856791,
            68.2481549
          ],
          [
            14.7856344,
            68.2481711
          ],
          [
            14.7855969,
            68.2481824
          ],
          [
            14.785534,
            68.2481942
          ],
          [
            14.7854906,
            68.2482005
          ],
          [
            14.7854349,
            68.248207
          ],
          [
            14.7853723,
            68.248209
          ],
          [
            14.7853175,
            68.2482057
          ],
          [
            14.7852466,
            68.2481999
          ],
          [
            14.7851975,
            68.2481937
          ],
          [
            14.7851448,
            68.2481824
          ],
          [
            14.7851012,
            68.2481629
          ],
          [
            14.7850781,
            68.2481419
          ],
          [
            14.785061,
            68.2481152
          ],
          [
            14.7850549,
            68.2480979
          ],
          [
            14.7850614,
            68.2480795
          ],
          [
            14.7850744,
            68.2480631
          ],
          [
            14.785092,
            68.2480525
          ],
          [
            14.7851069,
            68.2480475
          ],
          [
            14.7851421,
            68.2480429
          ],
          [
            14.7851631,
            68.2480435
          ],
          [
            14.7851818,
            68.248045
          ],
          [
            14.7851955,
            68.248048
          ],
          [
            14.7852072,
            68.2480514
          ],
          [
            14.7852153,
            68.2480546
          ],
          [
            14.7852215,
            68.2480571
          ],
          [
            14.7852276,
            68.2480595
          ],
          [
            14.7852286,
            68.2480598
          ],
          [
            14.7851864,
            68.2479897
          ],
          [
            14.7851749,
            68.2479807
          ],
          [
            14.7851629,
            68.2479717
          ],
          [
            14.7851447,
            68.2479618
          ],
          [
            14.7851238,
            68.2479528
          ],
          [
            14.7850959,
            68.24794
          ],
          [
            14.7850799,
            68.2479296
          ],
          [
            14.7850635,
            68.2479174
          ],
          [
            14.7850412,
            68.2479069
          ],
          [
            14.7850171,
            68.2478965
          ],
          [
            14.7849886,
            68.2478843
          ],
          [
            14.7849656,
            68.2478753
          ],
          [
            14.7849411,
            68.2478645
          ],
          [
            14.7849166,
            68.2478532
          ],
          [
            14.7848925,
            68.2478411
          ],
          [
            14.7848602,
            68.2478266
          ],
          [
            14.7848423,
            68.2478172
          ],
          [
            14.7848193,
            68.2478062
          ],
          [
            14.7847952,
            68.2477938
          ],
          [
            14.7847694,
            68.2477809
          ],
          [
            14.7847451,
            68.2477698
          ],
          [
            14.7847126,
            68.2477579
          ],
          [
            14.7846844,
            68.2477473
          ],
          [
            14.7846527,
            68.2477347
          ],
          [
            14.7846265,
            68.2477244
          ],
          [
            14.7845978,
            68.2477134
          ],
          [
            14.784568,
            68.2477012
          ],
          [
            14.7845379,
            68.2476894
          ],
          [
            14.7845041,
            68.2476778
          ],
          [
            14.7844776,
            68.2476682
          ],
          [
            14.7844486,
            68.2476574
          ],
          [
            14.7844178,
            68.2476457
          ],
          [
            14.7843905,
            68.2476309
          ],
          [
            14.784359,
            68.2476155
          ],
          [
            14.7843305,
            68.2476031
          ],
          [
            14.7843063,
            68.2475887
          ],
          [
            14.7842819,
            68.2475734
          ],
          [
            14.7842617,
            68.2475573
          ],
          [
            14.7842454,
            68.2475393
          ],
          [
            14.7842361,
            68.2475247
          ],
          [
            14.7842214,
            68.2475093
          ],
          [
            14.7842104,
            68.2474915
          ],
          [
            14.7842059,
            68.2474735
          ],
          [
            14.7842089,
            68.2474545
          ],
          [
            14.7842072,
            68.2474359
          ],
          [
            14.7842121,
            68.2474166
          ],
          [
            14.7842172,
            68.2473974
          ],
          [
            14.7842247,
            68.2473801
          ],
          [
            14.7842315,
            68.2473677
          ],
          [
            14.784248,
            68.2473454
          ],
          [
            14.784263,
            68.247329
          ],
          [
            14.7842778,
            68.2473138
          ],
          [
            14.7842909,
            68.2472983
          ],
          [
            14.7843045,
            68.2472817
          ],
          [
            14.7843255,
            68.2472647
          ],
          [
            14.7843492,
            68.247248
          ],
          [
            14.7843678,
            68.2472286
          ],
          [
            14.7843847,
            68.2472125
          ],
          [
            14.7844023,
            68.2471967
          ],
          [
            14.7844205,
            68.2471807
          ],
          [
            14.7844349,
            68.2471647
          ],
          [
            14.784455,
            68.2471484
          ],
          [
            14.7844596,
            68.2471334
          ],
          [
            14.7844682,
            68.2471183
          ],
          [
            14.7845009,
            68.2471042
          ],
          [
            14.7845404,
            68.2470901
          ],
          [
            14.7845698,
            68.2470745
          ],
          [
            14.784601,
            68.2470635
          ],
          [
            14.78463,
            68.2470526
          ],
          [
            14.78465,
            68.2470413
          ],
          [
            14.7846588,
            68.2470287
          ],
          [
            14.7846653,
            68.2470138
          ],
          [
            14.7846735,
            68.2470027
          ],
          [
            14.7846813,
            68.2469882
          ],
          [
            14.7846914,
            68.2469742
          ],
          [
            14.7847031,
            68.2469617
          ],
          [
            14.7847154,
            68.2469488
          ],
          [
            14.7847284,
            68.246937
          ],
          [
            14.7847415,
            68.2469243
          ],
          [
            14.7847494,
            68.246912
          ],
          [
            14.7847618,
            68.2468993
          ],
          [
            14.7847742,
            68.2468914
          ],
          [
            14.7847891,
            68.2468741
          ],
          [
            14.7848103,
            68.2468602
          ],
          [
            14.7848256,
            68.2468486
          ],
          [
            14.7848371,
            68.2468371
          ],
          [
            14.7848477,
            68.2468262
          ],
          [
            14.7848618,
            68.2468156
          ],
          [
            14.7848737,
            68.2468053
          ],
          [
            14.7848823,
            68.2467926
          ],
          [
            14.784889,
            68.2467815
          ],
          [
            14.7848929,
            68.2467693
          ],
          [
            14.7848936,
            68.2467573
          ],
          [
            14.7848859,
            68.2467428
          ],
          [
            14.784878,
            68.2467273
          ],
          [
            14.7848725,
            68.2467153
          ],
          [
            14.7848683,
            68.2467016
          ],
          [
            14.7848583,
            68.2466872
          ],
          [
            14.7848404,
            68.2466734
          ],
          [
            14.7848115,
            68.2466588
          ],
          [
            14.7847861,
            68.2466496
          ],
          [
            14.7847501,
            68.2466394
          ],
          [
            14.7847071,
            68.2466297
          ],
          [
            14.7846659,
            68.246621
          ],
          [
            14.7846221,
            68.2466147
          ],
          [
            14.784575,
            68.2466084
          ],
          [
            14.7845276,
            68.2466052
          ],
          [
            14.78447,
            68.2466018
          ],
          [
            14.7844279,
            68.246601
          ],
          [
            14.7843811,
            68.2466061
          ],
          [
            14.7843343,
            68.246617
          ],
          [
            14.7842918,
            68.2466269
          ],
          [
            14.7842391,
            68.2466389
          ],
          [
            14.784206,
            68.2466477
          ],
          [
            14.7841709,
            68.2466602
          ],
          [
            14.7841402,
            68.2466755
          ]
        ]
      },
      "properties": {
        "timestamps": [
          1785150422,
          1785150423,
          1785150425,
          1785150427,
          1785150429,
          1785150431,
          1785150433,
          1785150435,
          1785150437,
          1785150439,
          1785150441,
          1785150443,
          1785150445,
          1785150447,
          1785150449,
          1785150451,
          1785150453,
          1785150455,
          1785150457,
          1785150459,
          1785150461,
          1785150463,
          1785150479,
          1785150481,
          1785150483,
          1785150485,
          1785150487,
          1785150489,
          1785150507,
          1785150509,
          1785150511,
          1785150513,
          1785150515,
          1785150541,
          1785150543,
          1785150545,
          1785150547,
          1785150549,
          1785150551,
          1785150553,
          1785150555,
          1785150557,
          1785150559,
          1785150561,
          1785150563,
          1785150565,
          1785150567,
          1785150569,
          1785150571,
          1785150573,
          1785150575,
          1785150577,
          1785150579,
          1785150581,
          1785150583,
          1785150585,
          1785150587,
          1785150589,
          1785150591,
          1785150593,
          1785150595,
          1785150597,
          1785150599,
          1785150601,
          1785150603,
          1785150605,
          1785150607,
          1785150609,
          1785150625,
          1785150627,
          1785150629,
          1785150631,
          1785150633,
          1785150635,
          1785150637,
          1785150639,
          1785150641,
          1785150643,
          1785150645,
          1785150647,
          1785150649,
          1785150651,
          1785150653,
          1785150655,
          1785150657,
          1785150659,
          1785150661,
          1785150663,
          1785150665,
          1785150667,
          1785150669,
          1785150671,
          1785150673,
          1785150675,
          1785150677,
          1785150679,
          1785150681,
          1785150683,
          1785150685,
          1785150687,
          1785150731,
          1785150733,
          1785150735,
          1785150737,
          1785150739,
          1785150741,
          1785150743,
          1785150745,
          1785150747,
          1785150749,
          1785150751,
          1785150753,
          1785150755,
          1785150757,
          1785150759,
          1785150761,
          1785150763,
          1785150765,
          1785150767,
          1785150769,
          1785150771,
          1785150773,
          1785150775,
          1785150777,
          1785150779,
          1785150781,
          1785150783,
          1785150785,
          1785150787,
          1785150789,
          1785150791,
          1785150793,
          1785150795,
          1785150797,
          1785150799,
          1785150801,
          1785150803,
          1785150805,
          1785150807,
          1785150809,
          1785150811,
          1785150813,
          1785150815,
          1785150817,
          1785150819,
          1785150821,
          1785150823,
          1785150825,
          1785150827,
          1785150829,
          1785150831,
          1785150833,
          1785150835,
          1785150837,
          1785150839,
          1785150841,
          1785150843,
          1785150845,
          1785150847,
          1785150849,
          1785150851,
          1785150853,
          1785150855,
          1785150857,
          1785150859,
          1785150861,
          1785150863,
          1785150865,
          1785150867,
          1785150869,
          1785150871,
          1785150873,
          1785150875,
          1785150877,
          1785150879,
          1785150881,
          1785150883,
          1785150885,
          1785150887,
          1785150889,
          1785150891,
          1785150893,
          1785150895,
          1785150897,
          1785150899,
          1785150901,
          1785150903,
          1785150905,
          1785150907,
          1785150909,
          1785150911,
          1785150913,
          1785150915,
          1785150917,
          1785150919,
          1785150921,
          1785150923,
          1785150925,
          1785150927,
          1785150929,
          1785150931,
          1785150933,
          1785150935,
          1785150937,
          1785150939,
          1785150941,
          1785150943,
          1785150945,
          1785150947,
          1785150949,
          1785150951,
          1785150953,
          1785150955,
          1785150957,
          1785150959,
          1785150961
        ]
      }
    }
  ]
}