{
  "type": "FeatureCollection",
  "properties": {
    "version": 3,
    "track_id": "PRNQW5VVYW5Z",
    "segment": "s004",
    "opened_at": "2026-07-27T08:58:13.982256Z",
    "closed_at": null,
    "anchor": {
      "known": true,
      "boot_id": "26",
      "mono_anchor_ms": 1016219103,
      "wall_anchor_ms": 1785142600884,
      "anchored_at_t": 1785142600,
      "uncertain": false
    },
    "stats": {
      "distance_nm": 0.335,
      "point_count": 155,
      "t_start": 1785142602,
      "t_stop": 1785143197
    }
  },
  "features": [
    {
      "type": "Feature",
      "geometry": {
        "type": "LineString",
        "coordinates": [
          [
            14.894274,
            68.2475246
          ],
          [
            14.8943109,
            68.2476212
          ],
          [
            14.8943174,
            68.2476171
          ],
          [
            14.8943271,
            68.2476223
          ],
          [
            14.8943308,
            68.2476243
          ],
          [
            14.8943316,
            68.2476246
          ],
          [
            14.8945491,
            68.2476923
          ],
          [
            14.8943112,
            68.24758
          ],
          [
            14.8943268,
            68.2475896
          ],
          [
            14.8943414,
            68.2475991
          ],
          [
            14.8943524,
            68.2476082
          ],
          [
            14.894367,
            68.2476177
          ],
          [
            14.8943795,
            68.2476229
          ],
          [
            14.8943915,
            68.2476292
          ],
          [
            14.8944023,
            68.2476352
          ],
          [
            14.8944117,
            68.2476401
          ],
          [
            14.8944214,
            68.2476444
          ],
          [
            14.8944334,
            68.2476491
          ],
          [
            14.8944428,
            68.2476524
          ],
          [
            14.8944538,
            68.247656
          ],
          [
            14.8944637,
            68.2476591
          ],
          [
            14.8944731,
            68.2476622
          ],
          [
            14.8944837,
            68.2476651
          ],
          [
            14.8944928,
            68.2476675
          ],
          [
            14.8945047,
            68.247671
          ],
          [
            14.8945113,
            68.2476732
          ],
          [
            14.8945192,
            68.2476772
          ],
          [
            14.8945267,
            68.2476801
          ],
          [
            14.894534,
            68.2476828
          ],
          [
            14.894537,
            68.2476848
          ],
          [
            14.8946506,
            68.247687
          ],
          [
            14.8947086,
            68.2476719
          ],
          [
            14.8947312,
            68.2476649
          ],
          [
            14.894753,
            68.2476573
          ],
          [
            14.8947759,
            68.2476495
          ],
          [
            14.8947952,
            68.247641
          ],
          [
            14.8948164,
            68.2476328
          ],
          [
            14.8948391,
            68.2476249
          ],
          [
            14.8948644,
            68.2476164
          ],
          [
            14.8948915,
            68.2476074
          ],
          [
            14.8949203,
            68.2475984
          ],
          [
            14.8949486,
            68.2475893
          ],
          [
            14.8949791,
            68.2475815
          ],
          [
            14.8950107,
            68.2475736
          ],
          [
            14.8950439,
            68.2475647
          ],
          [
            14.8950788,
            68.2475549
          ],
          [
            14.8951151,
            68.2475451
          ],
          [
            14.8951528,
            68.2475352
          ],
          [
            14.8951915,
            68.2475253
          ],
          [
            14.8952307,
            68.2475148
          ],
          [
            14.8952699,
            68.2475035
          ],
          [
            14.8953095,
            68.2474921
          ],
          [
            14.8953504,
            68.2474802
          ],
          [
            14.8953923,
            68.2474692
          ],
          [
            14.8954329,
            68.2474581
          ],
          [
            14.8954743,
            68.2474462
          ],
          [
            14.8955139,
            68.2474334
          ],
          [
            14.8955528,
            68.2474202
          ],
          [
            14.8955891,
            68.247405
          ],
          [
            14.8956217,
            68.2473886
          ],
          [
            14.895652,
            68.2473704
          ],
          [
            14.8956775,
            68.2473499
          ],
          [
            14.8956969,
            68.2473278
          ],
          [
            14.8957109,
            68.2473046
          ],
          [
            14.8957161,
            68.2472798
          ],
          [
            14.8957122,
            68.247254
          ],
          [
            14.8957025,
            68.2472276
          ],
          [
            14.8956829,
            68.2472012
          ],
          [
            14.8956545,
            68.2471744
          ],
          [
            14.8956234,
            68.2471472
          ],
          [
            14.8955883,
            68.2471206
          ],
          [
            14.8955486,
            68.2470937
          ],
          [
            14.8955043,
            68.2470668
          ],
          [
            14.8954562,
            68.2470401
          ],
          [
            14.8954048,
            68.247014
          ],
          [
            14.8953532,
            68.2469871
          ],
          [
            14.8953015,
            68.2469595
          ],
          [
            14.8952467,
            68.2469311
          ],
          [
            14.8951887,
            68.2469049
          ],
          [
            14.8951235,
            68.2468755
          ],
          [
            14.8950679,
            68.2468436
          ],
          [
            14.8950101,
            68.2468115
          ],
          [
            14.8949519,
            68.2467794
          ],
          [
            14.8948966,
            68.2467468
          ],
          [
            14.8948401,
            68.2467145
          ],
          [
            14.8947828,
            68.2466803
          ],
          [
            14.8947232,
            68.2466442
          ],
          [
            14.8946594,
            68.2466076
          ],
          [
            14.8945915,
            68.2465701
          ],
          [
            14.8945212,
            68.246532
          ],
          [
            14.8944493,
            68.2464931
          ],
          [
            14.8943748,
            68.2464531
          ],
          [
            14.8942983,
            68.2464124
          ],
          [
            14.8942192,
            68.2463717
          ],
          [
            14.8941372,
            68.2463311
          ],
          [
            14.8940541,
            68.2462897
          ],
          [
            14.8939696,
            68.2462488
          ],
          [
            14.8938819,
            68.2462081
          ],
          [
            14.8937902,
            68.2461679
          ],
          [
            14.8936968,
            68.2461277
          ],
          [
            14.8936025,
            68.2460871
          ],
          [
            14.8935087,
            68.2460466
          ],
          [
            14.8934116,
            68.2460067
          ],
          [
            14.8933138,
            68.2459658
          ],
          [
            14.8932196,
            68.2459237
          ],
          [
            14.8931286,
            68.245881
          ],
          [
            14.8930416,
            68.2458362
          ],
          [
            14.8929571,
            68.2457907
          ],
          [
            14.8928736,
            68.2457449
          ],
          [
            14.8927893,
            68.245699
          ],
          [
            14.8927053,
            68.2456533
          ],
          [
            14.8926209,
            68.2456072
          ],
          [
            14.8925375,
            68.245561
          ],
          [
            14.8924525,
            68.2455153
          ],
          [
            14.8923673,
            68.2454697
          ],
          [
            14.8922809,
            68.2454239
          ],
          [
            14.8921959,
            68.2453779
          ],
          [
            14.8921108,
            68.245332
          ],
          [
            14.8920271,
            68.2452857
          ],
          [
            14.8919435,
            68.2452395
          ],
          [
            14.8918603,
            68.245193
          ],
          [
            14.8917731,
            68.2451473
          ],
          [
            14.8916873,
            68.2451015
          ],
          [
            14.8916024,
            68.2450552
          ],
          [
            14.8915204,
            68.2450084
          ],
          [
            14.8914405,
            68.2449608
          ],
          [
            14.891362,
            68.2449126
          ],
          [
            14.8912865,
            68.244864
          ],
          [
            14.8912112,
            68.2448153
          ],
          [
            14.8911364,
            68.2447661
          ],
          [
            14.8910677,
            68.2447159
          ],
          [
            14.8910008,
            68.2446655
          ],
          [
            14.8909368,
            68.2446149
          ],
          [
            14.890874,
            68.244564
          ],
          [
            14.890813,
            68.2445125
          ],
          [
            14.8907551,
            68.2444609
          ],
          [
            14.890699,
            68.2444084
          ],
          [
            14.8906422,
            68.2443558
          ],
          [
            14.8905868,
            68.2443031
          ],
          [
            14.8905323,
            68.2442504
          ],
          [
            14.8904794,
            68.2441979
          ],
          [
            14.8904267,
            68.2441451
          ],
          [
            14.8903745,
            68.244092
          ],
          [
            14.8903231,
            68.2440385
          ],
          [
            14.8902726,
            68.2439856
          ],
          [
            14.890226,
            68.2439325
          ],
          [
            14.890178,
            68.2438794
          ],
          [
            14.8901305,
            68.2438261
          ],
          [
            14.8900839,
            68.2437731
          ],
          [
            14.8900364,
            68.2437203
          ],
          [
            14.8899886,
            68.2436668
          ],
          [
            14.8899421,
            68.2436123
          ],
          [
            14.8898929,
            68.2435573
          ],
          [
            14.8898443,
            68.2435021
          ],
          [
            14.8897918,
            68.243447
          ]
        ]
      },
      "properties": {
        "timestamps": [
          1785142602,
          1785142603,
          1785142605,
          1785142607,
          1785142609,
          1785142611,
          1785142847,
          1785142861,
          1785142863,
          1785142865,
          1785142867,
          1785142869,
          1785142871,
          1785142873,
          1785142875,
          1785142877,
          1785142879,
          1785142881,
          1785142883,
          1785142885,
          1785142887,
          1785142889,
          1785142891,
          1785142893,
          1785142895,
          1785142897,
          1785142899,
          1785142901,
          1785142903,
          1785142905,
          1785142949,
          1785142951,
          1785142953,
          1785142955,
          1785142957,
          1785142959,
          1785142961,
          1785142963,
          1785142965,
          1785142967,
          1785142969,
          1785142971,
          1785142973,
          1785142975,
          1785142977,
          1785142979,
          1785142981,
          1785142983,
          1785142985,
          1785142987,
          1785142989,
          1785142991,
          1785142993,
          1785142995,
          1785142997,
          1785142999,
          1785143001,
          1785143003,
          1785143005,
          1785143007,
          1785143009,
          1785143011,
          1785143013,
          1785143015,
          1785143017,
          1785143019,
          1785143021,
          1785143023,
          1785143025,
          1785143027,
          1785143029,
          1785143031,
          1785143033,
          1785143035,
          1785143037,
          1785143039,
          1785143041,
          1785143043,
          1785143045,
          1785143047,
          1785143049,
          1785143051,
          1785143053,
          1785143055,
          1785143057,
          1785143059,
          1785143061,
          1785143063,
          1785143065,
          1785143067,
          1785143069,
          1785143071,
          1785143073,
          1785143075,
          1785143077,
          1785143079,
          1785143081,
          1785143083,
          1785143085,
          1785143087,
          1785143089,
          1785143091,
          1785143093,
          1785143095,
          1785143097,
          1785143099,
          1785143101,
          1785143103,
          1785143105,
          1785143107,
          1785143109,
          1785143111,
          1785143113,
          1785143115,
          1785143117,
          1785143119,
          1785143121,
          1785143123,
          1785143125,
          1785143127,
          1785143129,
          1785143131,
          1785143133,
          1785143135,
          1785143137,
          1785143139,
          1785143141,
          1785143143,
          1785143145,
          1785143147,
          1785143149,
          1785143151,
          1785143153,
          1785143155,
          1785143157,
          1785143159,
          1785143161,
          1785143163,
          1785143165,
          1785143167,
          1785143169,
          1785143171,
          1785143173,
          1785143175,
          1785143177,
          1785143179,
          1785143181,
          1785143183,
          1785143185,
          1785143187,
          1785143189,
          1785143191,
          1785143193,
          1785143195,
          1785143197
        ]
      }
    }
  ]
}