{
  "type": "FeatureCollection",
  "properties": {
    "version": 3,
    "track_id": "E5YAWBX5T5H7",
    "segment": "s001",
    "opened_at": "2026-08-14T10:03:41.275568Z",
    "closed_at": null,
    "anchor": {
      "known": true,
      "boot_id": "26",
      "mono_anchor_ms": 2575390033,
      "wall_anchor_ms": 1786701770810,
      "anchored_at_t": 1786701770,
      "uncertain": false
    },
    "stats": {
      "distance_nm": 14.029,
      "point_count": 585,
      "t_start": 1786701772,
      "t_stop": 1786702947
    }
  },
  "features": [
    {
      "type": "Feature",
      "geometry": {
        "type": "LineString",
        "coordinates": [
          [
            8.6741132,
            51.7305188
          ],
          [
            8.6735726,
            51.7304659
          ],
          [
            8.6732445,
            51.7304349
          ],
          [
            8.6728969,
            51.730407
          ],
          [
            8.6725241,
            51.7304023
          ],
          [
            8.6721167,
            51.730406
          ],
          [
            8.6716892,
            51.7304239
          ],
          [
            8.6712738,
            51.730459
          ],
          [
            8.6708402,
            51.7304893
          ],
          [
            8.6704155,
            51.7305486
          ],
          [
            8.6699926,
            51.7306351
          ],
          [
            8.6695664,
            51.7307133
          ],
          [
            8.6691216,
            51.7307783
          ],
          [
            8.6686815,
            51.7308372
          ],
          [
            8.6682503,
            51.7308938
          ],
          [
            8.667821,
            51.7309522
          ],
          [
            8.6673955,
            51.7310108
          ],
          [
            8.666975,
            51.7310678
          ],
          [
            8.6665671,
            51.7311222
          ],
          [
            8.6661719,
            51.7311753
          ],
          [
            8.6657835,
            51.7312262
          ],
          [
            8.6653976,
            51.7312808
          ],
          [
            8.6650085,
            51.7313324
          ],
          [
            8.6646288,
            51.7313846
          ],
          [
            8.6642521,
            51.7314358
          ],
          [
            8.6639042,
            51.7314843
          ],
          [
            8.6636793,
            51.731519
          ],
          [
            8.6636069,
            51.7315288
          ],
          [
            8.6635957,
            51.7315302
          ],
          [
            8.6636001,
            51.7315305
          ],
          [
            8.6635906,
            51.7315302
          ],
          [
            8.6635142,
            51.7314988
          ],
          [
            8.663478,
            51.7313883
          ],
          [
            8.6634727,
            51.7312253
          ],
          [
            8.663467,
            51.7310276
          ],
          [
            8.6634675,
            51.7308091
          ],
          [
            8.6634467,
            51.73056
          ],
          [
            8.6634395,
            51.730308
          ],
          [
            8.6634232,
            51.7300343
          ],
          [
            8.6634115,
            51.7297657
          ],
          [
            8.6633879,
            51.7294828
          ],
          [
            8.6633634,
            51.7291946
          ],
          [
            8.6633341,
            51.7289102
          ],
          [
            8.6633085,
            51.7286227
          ],
          [
            8.663281,
            51.7283327
          ],
          [
            8.6632554,
            51.7280399
          ],
          [
            8.6632281,
            51.7277383
          ],
          [
            8.6631993,
            51.7274367
          ],
          [
            8.6631588,
            51.727141
          ],
          [
            8.6631193,
            51.7268294
          ],
          [
            8.6630559,
            51.7265181
          ],
          [
            8.6629484,
            51.7262187
          ],
          [
            8.6627198,
            51.7257484
          ],
          [
            8.6625226,
            51.7254247
          ],
          [
            8.6622835,
            51.7251058
          ],
          [
            8.6620234,
            51.7247927
          ],
          [
            8.6617645,
            51.7244826
          ],
          [
            8.6615277,
            51.724177
          ],
          [
            8.6612978,
            51.723866
          ],
          [
            8.6610987,
            51.7235461
          ],
          [
            8.660953,
            51.7232181
          ],
          [
            8.6608534,
            51.7228885
          ],
          [
            8.6607918,
            51.7225599
          ],
          [
            8.660773,
            51.7222302
          ],
          [
            8.6607963,
            51.7218945
          ],
          [
            8.6608286,
            51.7215561
          ],
          [
            8.6608654,
            51.7212172
          ],
          [
            8.6609138,
            51.7208726
          ],
          [
            8.6609586,
            51.7205282
          ],
          [
            8.6610032,
            51.7201833
          ],
          [
            8.6610478,
            51.7198315
          ],
          [
            8.6610965,
            51.7194791
          ],
          [
            8.6611401,
            51.719126
          ],
          [
            8.6611732,
            51.7187686
          ],
          [
            8.6612149,
            51.7183995
          ],
          [
            8.661253,
            51.7180318
          ],
          [
            8.6612945,
            51.7176603
          ],
          [
            8.6613462,
            51.7172817
          ],
          [
            8.6613956,
            51.716893
          ],
          [
            8.6614375,
            51.7165081
          ],
          [
            8.6614812,
            51.7161225
          ],
          [
            8.6615237,
            51.7157295
          ],
          [
            8.6615749,
            51.7153428
          ],
          [
            8.6616208,
            51.7149633
          ],
          [
            8.6616744,
            51.7145793
          ],
          [
            8.6617166,
            51.7142139
          ],
          [
            8.6617552,
            51.7138769
          ],
          [
            8.6617903,
            51.7135597
          ],
          [
            8.6618223,
            51.7132599
          ],
          [
            8.6618514,
            51.7129733
          ],
          [
            8.6618828,
            51.7127
          ],
          [
            8.6619235,
            51.7124401
          ],
          [
            8.6619594,
            51.7121931
          ],
          [
            8.6619963,
            51.711998
          ],
          [
            8.6619661,
            51.7118238
          ],
          [
            8.6619726,
            51.7116546
          ],
          [
            8.6621745,
            51.7115201
          ],
          [
            8.6623309,
            51.7113272
          ],
          [
            8.6624797,
            51.7110965
          ],
          [
            8.6626775,
            51.7108534
          ],
          [
            8.6629151,
            51.7105936
          ],
          [
            8.663196,
            51.7103373
          ],
          [
            8.6635202,
            51.7100812
          ],
          [
            8.663862,
            51.7098431
          ],
          [
            8.6642123,
            51.7096192
          ],
          [
            8.6645687,
            51.7093948
          ],
          [
            8.6649388,
            51.709169
          ],
          [
            8.665312,
            51.7089487
          ],
          [
            8.6656972,
            51.7087269
          ],
          [
            8.6660779,
            51.7085
          ],
          [
            8.6664612,
            51.7082785
          ],
          [
            8.6668426,
            51.7080506
          ],
          [
            8.6672291,
            51.7078194
          ],
          [
            8.667622,
            51.7075939
          ],
          [
            8.6679978,
            51.7073641
          ],
          [
            8.6683797,
            51.7071328
          ],
          [
            8.6687613,
            51.7068927
          ],
          [
            8.669126,
            51.7066503
          ],
          [
            8.6694986,
            51.706403
          ],
          [
            8.6698503,
            51.7061435
          ],
          [
            8.6702031,
            51.70589
          ],
          [
            8.6705591,
            51.7056308
          ],
          [
            8.6709034,
            51.7053722
          ],
          [
            8.6712432,
            51.7051121
          ],
          [
            8.6715698,
            51.7048466
          ],
          [
            8.6718884,
            51.704572
          ],
          [
            8.6721964,
            51.7042976
          ],
          [
            8.6725031,
            51.7040192
          ],
          [
            8.67279,
            51.7037377
          ],
          [
            8.6730765,
            51.7034547
          ],
          [
            8.6733521,
            51.7031678
          ],
          [
            8.6736213,
            51.7028838
          ],
          [
            8.6738903,
            51.7026009
          ],
          [
            8.6741559,
            51.7023142
          ],
          [
            8.6744187,
            51.7020278
          ],
          [
            8.6746785,
            51.7017469
          ],
          [
            8.6749343,
            51.7014623
          ],
          [
            8.67519,
            51.7011756
          ],
          [
            8.6754446,
            51.7008822
          ],
          [
            8.6757088,
            51.7005868
          ],
          [
            8.675975,
            51.7002912
          ],
          [
            8.6762412,
            51.6999949
          ],
          [
            8.6765085,
            51.6997005
          ],
          [
            8.6767674,
            51.6994087
          ],
          [
            8.677031,
            51.6991164
          ],
          [
            8.6772952,
            51.6988247
          ],
          [
            8.6775571,
            51.69854
          ],
          [
            8.6777993,
            51.6982615
          ],
          [
            8.6781553,
            51.6978625
          ],
          [
            8.678382,
            51.6976163
          ],
          [
            8.6785815,
            51.6973829
          ],
          [
            8.6787887,
            51.6971596
          ],
          [
            8.678968,
            51.6969464
          ],
          [
            8.6790912,
            51.6967522
          ],
          [
            8.6791086,
            51.6965892
          ],
          [
            8.6789685,
            51.6964406
          ],
          [
            8.6786759,
            51.6963335
          ],
          [
            8.6783498,
            51.6962195
          ],
          [
            8.678081,
            51.6960585
          ],
          [
            8.6779418,
            51.6958398
          ],
          [
            8.6779776,
            51.695604
          ],
          [
            8.6780607,
            51.6953665
          ],
          [
            8.6779828,
            51.6951154
          ],
          [
            8.6776927,
            51.6948917
          ],
          [
            8.6772925,
            51.6947327
          ],
          [
            8.6768352,
            51.6945826
          ],
          [
            8.6763474,
            51.6944149
          ],
          [
            8.6758226,
            51.6942322
          ],
          [
            8.6752664,
            51.6940444
          ],
          [
            8.6746968,
            51.6938555
          ],
          [
            8.6741136,
            51.6936662
          ],
          [
            8.6735122,
            51.6934751
          ],
          [
            8.6728993,
            51.6932803
          ],
          [
            8.6722644,
            51.6930869
          ],
          [
            8.6716221,
            51.692888
          ],
          [
            8.6709704,
            51.6926918
          ],
          [
            8.6703093,
            51.6924851
          ],
          [
            8.6696426,
            51.6922719
          ],
          [
            8.6689853,
            51.6920549
          ],
          [
            8.668319,
            51.6918434
          ],
          [
            8.6676558,
            51.6916283
          ],
          [
            8.666986,
            51.6914097
          ],
          [
            8.666318,
            51.6911916
          ],
          [
            8.6656519,
            51.690972
          ],
          [
            8.6649837,
            51.6907555
          ],
          [
            8.664319,
            51.6905367
          ],
          [
            8.6636495,
            51.6903159
          ],
          [
            8.6629849,
            51.6901013
          ],
          [
            8.6623248,
            51.689888
          ],
          [
            8.6616748,
            51.6896782
          ],
          [
            8.6610266,
            51.6894651
          ],
          [
            8.6603762,
            51.6892562
          ],
          [
            8.6597234,
            51.6890545
          ],
          [
            8.6590743,
            51.6888589
          ],
          [
            8.6584276,
            51.6886697
          ],
          [
            8.657799,
            51.6884773
          ],
          [
            8.6571845,
            51.6882781
          ],
          [
            8.6565835,
            51.6880708
          ],
          [
            8.6559938,
            51.687858
          ],
          [
            8.6554058,
            51.6876303
          ],
          [
            8.6548438,
            51.687391
          ],
          [
            8.6542881,
            51.6871396
          ],
          [
            8.653756,
            51.6868704
          ],
          [
            8.6532376,
            51.6865874
          ],
          [
            8.6527521,
            51.6862924
          ],
          [
            8.6522775,
            51.6859828
          ],
          [
            8.6518346,
            51.6856663
          ],
          [
            8.6514196,
            51.6853349
          ],
          [
            8.6510405,
            51.6849948
          ],
          [
            8.6506813,
            51.6846416
          ],
          [
            8.6503346,
            51.6842807
          ],
          [
            8.650006,
            51.6839014
          ],
          [
            8.6497137,
            51.6835174
          ],
          [
            8.6494651,
            51.6831267
          ],
          [
            8.6492466,
            51.6827373
          ],
          [
            8.6490559,
            51.6823403
          ],
          [
            8.6488948,
            51.6819358
          ],
          [
            8.6487673,
            51.6815306
          ],
          [
            8.6486628,
            51.6811263
          ],
          [
            8.6485894,
            51.6807118
          ],
          [
            8.6485525,
            51.6803041
          ],
          [
            8.6485388,
            51.6798831
          ],
          [
            8.6485573,
            51.6794624
          ],
          [
            8.6486044,
            51.6790443
          ],
          [
            8.648684,
            51.6786276
          ],
          [
            8.648768,
            51.6782155
          ],
          [
            8.6488782,
            51.6778087
          ],
          [
            8.6490116,
            51.6774035
          ],
          [
            8.6491626,
            51.6769995
          ],
          [
            8.6493332,
            51.6765999
          ],
          [
            8.6495211,
            51.6761973
          ],
          [
            8.64972,
            51.6757942
          ],
          [
            8.6499308,
            51.6753867
          ],
          [
            8.6501732,
            51.6749651
          ],
          [
            8.6504272,
            51.6745347
          ],
          [
            8.6506968,
            51.6741092
          ],
          [
            8.6509737,
            51.6736891
          ],
          [
            8.651251,
            51.6732709
          ],
          [
            8.6515384,
            51.6728559
          ],
          [
            8.6518274,
            51.6724421
          ],
          [
            8.6521029,
            51.6720288
          ],
          [
            8.6523801,
            51.6716061
          ],
          [
            8.6526668,
            51.6711854
          ],
          [
            8.6529552,
            51.6707642
          ],
          [
            8.6532393,
            51.6703448
          ],
          [
            8.6535135,
            51.6699227
          ],
          [
            8.6537911,
            51.6695061
          ],
          [
            8.6540541,
            51.6690886
          ],
          [
            8.6543297,
            51.668653
          ],
          [
            8.654594,
            51.6682132
          ],
          [
            8.6548461,
            51.6677796
          ],
          [
            8.6550928,
            51.6673413
          ],
          [
            8.6553229,
            51.6669121
          ],
          [
            8.6555561,
            51.6664778
          ],
          [
            8.6557662,
            51.6660464
          ],
          [
            8.6559813,
            51.6656091
          ],
          [
            8.6561757,
            51.6651632
          ],
          [
            8.6563701,
            51.6647194
          ],
          [
            8.6565447,
            51.6642805
          ],
          [
            8.6567123,
            51.6638434
          ],
          [
            8.6568752,
            51.6633923
          ],
          [
            8.65703,
            51.66295
          ],
          [
            8.6571725,
            51.6625101
          ],
          [
            8.6573031,
            51.6620639
          ],
          [
            8.6574257,
            51.6616124
          ],
          [
            8.6575378,
            51.6611645
          ],
          [
            8.6576394,
            51.660719
          ],
          [
            8.657732,
            51.6602778
          ],
          [
            8.6578227,
            51.6598337
          ],
          [
            8.6579044,
            51.6593864
          ],
          [
            8.6579828,
            51.6589266
          ],
          [
            8.6580454,
            51.6584652
          ],
          [
            8.6580958,
            51.6580028
          ],
          [
            8.6581377,
            51.6575394
          ],
          [
            8.6581749,
            51.657075
          ],
          [
            8.658201,
            51.6566057
          ],
          [
            8.6582149,
            51.6561364
          ],
          [
            8.6582183,
            51.6556624
          ],
          [
            8.6582154,
            51.6551912
          ],
          [
            8.6582031,
            51.6547216
          ],
          [
            8.658179,
            51.6542508
          ],
          [
            8.6581414,
            51.6537866
          ],
          [
            8.6580999,
            51.6533177
          ],
          [
            8.6580458,
            51.652846
          ],
          [
            8.657985,
            51.6523794
          ],
          [
            8.6579162,
            51.6519086
          ],
          [
            8.6578321,
            51.6514346
          ],
          [
            8.6577348,
            51.6509588
          ],
          [
            8.6576298,
            51.6504835
          ],
          [
            8.6575148,
            51.650008
          ],
          [
            8.6573861,
            51.649534
          ],
          [
            8.6572553,
            51.6490659
          ],
          [
            8.6571103,
            51.648609
          ],
          [
            8.656956,
            51.648156
          ],
          [
            8.6567923,
            51.6477091
          ],
          [
            8.6566263,
            51.6472617
          ],
          [
            8.6564566,
            51.6468158
          ],
          [
            8.656278,
            51.6463731
          ],
          [
            8.6560859,
            51.645933
          ],
          [
            8.65589,
            51.6454957
          ],
          [
            8.6556799,
            51.645059
          ],
          [
            8.655462,
            51.6446186
          ],
          [
            8.6552273,
            51.644185
          ],
          [
            8.6549836,
            51.643751
          ],
          [
            8.6547331,
            51.6433194
          ],
          [
            8.6544728,
            51.6428867
          ],
          [
            8.6541984,
            51.6424624
          ],
          [
            8.6539199,
            51.6420346
          ],
          [
            8.653626,
            51.641602
          ],
          [
            8.6533194,
            51.6411745
          ],
          [
            8.6530094,
            51.6407512
          ],
          [
            8.652696,
            51.6403266
          ],
          [
            8.6523762,
            51.6399074
          ],
          [
            8.6520464,
            51.6394906
          ],
          [
            8.6517048,
            51.6390779
          ],
          [
            8.6513568,
            51.6386745
          ],
          [
            8.6510044,
            51.6382765
          ],
          [
            8.6506515,
            51.6378891
          ],
          [
            8.6502896,
            51.6374998
          ],
          [
            8.6499133,
            51.6371097
          ],
          [
            8.6495185,
            51.6367126
          ],
          [
            8.6491124,
            51.636322
          ],
          [
            8.6486961,
            51.6359225
          ],
          [
            8.6482717,
            51.6355213
          ],
          [
            8.6478358,
            51.6351191
          ],
          [
            8.6473821,
            51.634719
          ],
          [
            8.6469261,
            51.634317
          ],
          [
            8.6464539,
            51.6339257
          ],
          [
            8.6459702,
            51.6335361
          ],
          [
            8.6454708,
            51.6331484
          ],
          [
            8.644962,
            51.6327641
          ],
          [
            8.6444469,
            51.632381
          ],
          [
            8.6439331,
            51.6319998
          ],
          [
            8.6433922,
            51.6316303
          ],
          [
            8.6428407,
            51.631256
          ],
          [
            8.6422723,
            51.6308879
          ],
          [
            8.6417043,
            51.6305196
          ],
          [
            8.6411323,
            51.6301595
          ],
          [
            8.640554,
            51.6298039
          ],
          [
            8.6399694,
            51.6294501
          ],
          [
            8.6393816,
            51.6291075
          ],
          [
            8.6387821,
            51.6287685
          ],
          [
            8.6381684,
            51.628434
          ],
          [
            8.6375512,
            51.628101
          ],
          [
            8.6369234,
            51.6277766
          ],
          [
            8.6362824,
            51.6274546
          ],
          [
            8.6356248,
            51.6271376
          ],
          [
            8.6349703,
            51.6268191
          ],
          [
            8.6343269,
            51.6265102
          ],
          [
            8.6336832,
            51.6261961
          ],
          [
            8.6330345,
            51.6258904
          ],
          [
            8.6323866,
            51.6255946
          ],
          [
            8.6317307,
            51.625301
          ],
          [
            8.6310707,
            51.6250145
          ],
          [
            8.6304014,
            51.6247298
          ],
          [
            8.6297267,
            51.6244493
          ],
          [
            8.6290362,
            51.6241635
          ],
          [
            8.6283342,
            51.6238773
          ],
          [
            8.6276397,
            51.6235946
          ],
          [
            8.6269426,
            51.6233034
          ],
          [
            8.626244,
            51.6230233
          ],
          [
            8.6255304,
            51.6227438
          ],
          [
            8.6248054,
            51.622462
          ],
          [
            8.62409,
            51.6221826
          ],
          [
            8.6233757,
            51.6219099
          ],
          [
            8.6226645,
            51.6216376
          ],
          [
            8.6219551,
            51.6213631
          ],
          [
            8.6212465,
            51.6210882
          ],
          [
            8.6205302,
            51.6208134
          ],
          [
            8.619806,
            51.6205449
          ],
          [
            8.6190784,
            51.6202708
          ],
          [
            8.6183503,
            51.6199972
          ],
          [
            8.6176238,
            51.6197272
          ],
          [
            8.6169032,
            51.6194563
          ],
          [
            8.6161754,
            51.6191817
          ],
          [
            8.6154515,
            51.61891
          ],
          [
            8.6147183,
            51.6186344
          ],
          [
            8.6139904,
            51.6183614
          ],
          [
            8.6132654,
            51.6180873
          ],
          [
            8.6125305,
            51.6178152
          ],
          [
            8.6117958,
            51.6175335
          ],
          [
            8.6110588,
            51.6172633
          ],
          [
            8.6103256,
            51.6169853
          ],
          [
            8.6095885,
            51.6167039
          ],
          [
            8.608839,
            51.6164288
          ],
          [
            8.6081033,
            51.6161514
          ],
          [
            8.6073803,
            51.6158766
          ],
          [
            8.6066437,
            51.6156032
          ],
          [
            8.605917,
            51.615329
          ],
          [
            8.605189,
            51.6150528
          ],
          [
            8.6044546,
            51.6147798
          ],
          [
            8.6037218,
            51.6145054
          ],
          [
            8.6029915,
            51.6142343
          ],
          [
            8.602278,
            51.613961
          ],
          [
            8.6015769,
            51.613696
          ],
          [
            8.6008841,
            51.6134248
          ],
          [
            8.6002038,
            51.6131604
          ],
          [
            8.5995308,
            51.6128909
          ],
          [
            8.5988593,
            51.6126159
          ],
          [
            8.5982045,
            51.6123368
          ],
          [
            8.5975622,
            51.6120541
          ],
          [
            8.5966185,
            51.6116228
          ],
          [
            8.5959969,
            51.6113251
          ],
          [
            8.5953892,
            51.6110207
          ],
          [
            8.594798,
            51.6107037
          ],
          [
            8.594233,
            51.6103869
          ],
          [
            8.5936819,
            51.6100617
          ],
          [
            8.5931531,
            51.6097237
          ],
          [
            8.5926413,
            51.6093859
          ],
          [
            8.5921496,
            51.6090372
          ],
          [
            8.5916847,
            51.6086802
          ],
          [
            8.5912297,
            51.6083267
          ],
          [
            8.5907925,
            51.6079492
          ],
          [
            8.5903749,
            51.607564
          ],
          [
            8.5899784,
            51.6071737
          ],
          [
            8.5896137,
            51.6067763
          ],
          [
            8.5892703,
            51.6063744
          ],
          [
            8.5889547,
            51.6059605
          ],
          [
            8.5886595,
            51.6055449
          ],
          [
            8.5883908,
            51.6051292
          ],
          [
            8.5881431,
            51.6047115
          ],
          [
            8.5879103,
            51.6042938
          ],
          [
            8.5877107,
            51.6038647
          ],
          [
            8.5875294,
            51.6034361
          ],
          [
            8.5873744,
            51.6030106
          ],
          [
            8.5872317,
            51.602588
          ],
          [
            8.5870945,
            51.6021685
          ],
          [
            8.5869659,
            51.6017578
          ],
          [
            8.5868327,
            51.6013466
          ],
          [
            8.5867016,
            51.6009463
          ],
          [
            8.5865734,
            51.6005671
          ],
          [
            8.5864445,
            51.6002085
          ],
          [
            8.5863135,
            51.5998685
          ],
          [
            8.5861727,
            51.5995502
          ],
          [
            8.5860269,
            51.5992491
          ],
          [
            8.585872,
            51.5989614
          ],
          [
            8.5857205,
            51.5986897
          ],
          [
            8.5855733,
            51.5984482
          ],
          [
            8.5854623,
            51.5982702
          ],
          [
            8.5853495,
            51.598166
          ],
          [
            8.5851626,
            51.5980826
          ],
          [
            8.5850498,
            51.5979311
          ],
          [
            8.5850787,
            51.5977335
          ],
          [
            8.5849807,
            51.5975104
          ],
          [
            8.5848024,
            51.5972706
          ],
          [
            8.5846043,
            51.5970207
          ],
          [
            8.584378,
            51.5967459
          ],
          [
            8.5841555,
            51.5964658
          ],
          [
            8.5839038,
            51.5961815
          ],
          [
            8.5836337,
            51.5958842
          ],
          [
            8.5833408,
            51.59558
          ],
          [
            8.5830206,
            51.5952694
          ],
          [
            8.5826824,
            51.5949521
          ],
          [
            8.582319,
            51.5946268
          ],
          [
            8.5819368,
            51.5943031
          ],
          [
            8.5815387,
            51.5939728
          ],
          [
            8.5811278,
            51.593656
          ],
          [
            8.580494,
            51.5931754
          ],
          [
            8.5798332,
            51.5926981
          ],
          [
            8.5793794,
            51.5923791
          ],
          [
            8.5789147,
            51.5920631
          ],
          [
            8.5784426,
            51.5917517
          ],
          [
            8.5779676,
            51.5914437
          ],
          [
            8.5774908,
            51.5911474
          ],
          [
            8.5770027,
            51.5908458
          ],
          [
            8.5765119,
            51.5905452
          ],
          [
            8.5760242,
            51.590244
          ],
          [
            8.5755371,
            51.5899452
          ],
          [
            8.575049,
            51.5896494
          ],
          [
            8.5745624,
            51.5893536
          ],
          [
            8.5740785,
            51.5890583
          ],
          [
            8.5735887,
            51.5887613
          ],
          [
            8.5730989,
            51.5884588
          ],
          [
            8.5726098,
            51.5881524
          ],
          [
            8.5721149,
            51.5878461
          ],
          [
            8.5716146,
            51.5875406
          ],
          [
            8.5711109,
            51.5872333
          ],
          [
            8.5706057,
            51.5869246
          ],
          [
            8.5700954,
            51.5866113
          ],
          [
            8.5695823,
            51.5862993
          ],
          [
            8.5690682,
            51.5859837
          ],
          [
            8.5685485,
            51.5856677
          ],
          [
            8.5680306,
            51.5853504
          ],
          [
            8.5675051,
            51.5850295
          ],
          [
            8.5669742,
            51.584702
          ],
          [
            8.5664382,
            51.5843704
          ],
          [
            8.5658962,
            51.5840418
          ],
          [
            8.5653444,
            51.5837087
          ],
          [
            8.5647891,
            51.5833745
          ],
          [
            8.5642389,
            51.5830345
          ],
          [
            8.5636801,
            51.5826916
          ],
          [
            8.5631269,
            51.58235
          ],
          [
            8.5625744,
            51.5820106
          ],
          [
            8.5620021,
            51.5816728
          ],
          [
            8.5614406,
            51.5813166
          ],
          [
            8.5608732,
            51.5809687
          ],
          [
            8.5603088,
            51.5806253
          ],
          [
            8.5597516,
            51.5802768
          ],
          [
            8.5589076,
            51.5797607
          ],
          [
            8.5583464,
            51.5794204
          ],
          [
            8.5577894,
            51.5790748
          ],
          [
            8.557242,
            51.5787389
          ],
          [
            8.5566873,
            51.5784038
          ],
          [
            8.556134,
            51.5780687
          ],
          [
            8.5555853,
            51.5777313
          ],
          [
            8.5550323,
            51.5773927
          ],
          [
            8.5544848,
            51.5770555
          ],
          [
            8.5539419,
            51.5767194
          ],
          [
            8.5533954,
            51.5763856
          ],
          [
            8.5528557,
            51.5760526
          ],
          [
            8.5523124,
            51.5757188
          ],
          [
            8.5517671,
            51.5753873
          ],
          [
            8.5512243,
            51.5750564
          ],
          [
            8.5506737,
            51.5747268
          ],
          [
            8.5501191,
            51.5743915
          ],
          [
            8.5495696,
            51.5740625
          ],
          [
            8.549019,
            51.5737273
          ],
          [
            8.5484762,
            51.5733956
          ],
          [
            8.5479313,
            51.573067
          ],
          [
            8.5473985,
            51.5727428
          ],
          [
            8.5468699,
            51.5724236
          ],
          [
            8.5463559,
            51.572105
          ],
          [
            8.5458574,
            51.5717942
          ],
          [
            8.5453783,
            51.5714995
          ],
          [
            8.5449255,
            51.5712241
          ],
          [
            8.5444869,
            51.5709576
          ],
          [
            8.5440736,
            51.570706
          ],
          [
            8.5436834,
            51.5704719
          ],
          [
            8.5433165,
            51.5702512
          ],
          [
            8.5429625,
            51.5700427
          ],
          [
            8.5426462,
            51.5698599
          ],
          [
            8.5424092,
            51.5697398
          ],
          [
            8.5422018,
            51.569682
          ],
          [
            8.5419632,
            51.5696347
          ],
          [
            8.5418387,
            51.5694898
          ],
          [
            8.5416939,
            51.5693111
          ],
          [
            8.5414463,
            51.5691365
          ],
          [
            8.5411509,
            51.5689602
          ],
          [
            8.5408335,
            51.5687671
          ],
          [
            8.5404925,
            51.5685588
          ],
          [
            8.5401245,
            51.5683322
          ],
          [
            8.5397495,
            51.5680997
          ],
          [
            8.5393473,
            51.5678543
          ],
          [
            8.5389367,
            51.5675989
          ],
          [
            8.5385155,
            51.5673381
          ],
          [
            8.5380897,
            51.5670745
          ],
          [
            8.5376574,
            51.5668092
          ],
          [
            8.5372292,
            51.5665406
          ],
          [
            8.5367897,
            51.5662716
          ],
          [
            8.5363432,
            51.565999
          ],
          [
            8.5358967,
            51.5657222
          ],
          [
            8.5354431,
            51.5654406
          ],
          [
            8.5349852,
            51.5651577
          ],
          [
            8.5345238,
            51.5648777
          ],
          [
            8.5340594,
            51.5645906
          ],
          [
            8.5335898,
            51.5643027
          ],
          [
            8.5331095,
            51.5640097
          ],
          [
            8.532629,
            51.5637209
          ],
          [
            8.5321444,
            51.5634315
          ],
          [
            8.5316621,
            51.5631367
          ],
          [
            8.5311815,
            51.5628367
          ],
          [
            8.5306846,
            51.5625322
          ],
          [
            8.5301974,
            51.5622194
          ],
          [
            8.5297013,
            51.5619199
          ],
          [
            8.5291981,
            51.5616085
          ],
          [
            8.5286784,
            51.5613048
          ],
          [
            8.5281573,
            51.5609858
          ],
          [
            8.5276289,
            51.5606647
          ],
          [
            8.5271019,
            51.5603383
          ],
          [
            8.5265769,
            51.5600153
          ],
          [
            8.5260427,
            51.5596946
          ],
          [
            8.5255182,
            51.5593717
          ],
          [
            8.5250075,
            51.559058
          ],
          [
            8.524565,
            51.5587904
          ],
          [
            8.5241425,
            51.5585367
          ],
          [
            8.5237248,
            51.5582877
          ],
          [
            8.5233113,
            51.5580345
          ],
          [
            8.5229008,
            51.5577858
          ],
          [
            8.5225035,
            51.5575338
          ],
          [
            8.5220981,
            51.5572894
          ],
          [
            8.5216982,
            51.5570395
          ],
          [
            8.5212949,
            51.5567895
          ],
          [
            8.5208848,
            51.5565373
          ],
          [
            8.5204733,
            51.5562851
          ],
          [
            8.5200668,
            51.5560345
          ]
        ]
      },
      "properties": {
        "timestamps": [
          1786701772,
          1786701775,
          1786701777,
          1786701779,
          1786701781,
          1786701783,
          1786701785,
          1786701787,
          1786701789,
          1786701791,
          1786701793,
          1786701795,
          1786701797,
          1786701799,
          1786701801,
          1786701803,
          1786701805,
          1786701807,
          1786701809,
          1786701811,
          1786701813,
          1786701815,
          1786701817,
          1786701819,
          1786701821,
          1786701823,
          1786701825,
          1786701827,
          1786701829,
          1786701831,
          1786701833,
          1786701835,
          1786701837,
          1786701839,
          1786701841,
          1786701843,
          1786701845,
          1786701847,
          1786701849,
          1786701851,
          1786701853,
          1786701855,
          1786701857,
          1786701859,
          1786701861,
          1786701863,
          1786701865,
          1786701867,
          1786701869,
          1786701871,
          1786701873,
          1786701875,
          1786701878,
          1786701880,
          1786701882,
          1786701885,
          1786701886,
          1786701888,
          1786701890,
          1786701892,
          1786701894,
          1786701896,
          1786701898,
          1786701900,
          1786701902,
          1786701904,
          1786701906,
          1786701908,
          1786701910,
          1786701912,
          1786701914,
          1786701916,
          1786701918,
          1786701920,
          1786701922,
          1786701924,
          1786701926,
          1786701928,
          1786701930,
          1786701932,
          1786701934,
          1786701936,
          1786701938,
          1786701940,
          1786701942,
          1786701944,
          1786701946,
          1786701948,
          1786701950,
          1786701952,
          1786701954,
          1786701956,
          1786701958,
          1786701960,
          1786701962,
          1786701964,
          1786701966,
          1786701968,
          1786701970,
          1786701972,
          1786701974,
          1786701976,
          1786701978,
          1786701980,
          1786701982,
          1786701984,
          1786701986,
          1786701988,
          1786701990,
          1786701992,
          1786701994,
          1786701996,
          1786701998,
          1786702000,
          1786702002,
          1786702004,
          1786702006,
          1786702008,
          1786702010,
          1786702012,
          1786702014,
          1786702016,
          1786702018,
          1786702020,
          1786702022,
          1786702024,
          1786702026,
          1786702028,
          1786702030,
          1786702032,
          1786702034,
          1786702036,
          1786702038,
          1786702040,
          1786702042,
          1786702044,
          1786702046,
          1786702048,
          1786702050,
          1786702052,
          1786702054,
          1786702056,
          1786702058,
          1786702060,
          1786702062,
          1786702064,
          1786702066,
          1786702068,
          1786702071,
          1786702073,
          1786702075,
          1786702077,
          1786702079,
          1786702081,
          1786702083,
          1786702085,
          1786702087,
          1786702089,
          1786702091,
          1786702093,
          1786702095,
          1786702097,
          1786702099,
          1786702101,
          1786702103,
          1786702105,
          1786702107,
          1786702109,
          1786702111,
          1786702113,
          1786702115,
          1786702117,
          1786702119,
          1786702121,
          1786702123,
          1786702125,
          1786702127,
          1786702129,
          1786702131,
          1786702133,
          1786702135,
          1786702137,
          1786702139,
          1786702141,
          1786702143,
          1786702145,
          1786702147,
          1786702149,
          1786702151,
          1786702153,
          1786702155,
          1786702157,
          1786702159,
          1786702161,
          1786702163,
          1786702165,
          1786702167,
          1786702169,
          1786702171,
          1786702173,
          1786702175,
          1786702177,
          1786702179,
          1786702181,
          1786702183,
          1786702185,
          1786702187,
          1786702189,
          1786702191,
          1786702193,
          1786702195,
          1786702197,
          1786702199,
          1786702201,
          1786702203,
          1786702205,
          1786702207,
          1786702209,
          1786702211,
          1786702213,
          1786702215,
          1786702217,
          1786702219,
          1786702221,
          1786702223,
          1786702225,
          1786702227,
          1786702229,
          1786702231,
          1786702233,
          1786702235,
          1786702237,
          1786702239,
          1786702241,
          1786702243,
          1786702245,
          1786702247,
          1786702249,
          1786702252,
          1786702254,
          1786702255,
          1786702257,
          1786702259,
          1786702261,
          1786702263,
          1786702265,
          1786702267,
          1786702269,
          1786702271,
          1786702273,
          1786702275,
          1786702277,
          1786702279,
          1786702281,
          1786702283,
          1786702285,
          1786702287,
          1786702289,
          1786702291,
          1786702293,
          1786702295,
          1786702297,
          1786702299,
          1786702301,
          1786702303,
          1786702305,
          1786702307,
          1786702309,
          1786702311,
          1786702313,
          1786702315,
          1786702317,
          1786702319,
          1786702321,
          1786702323,
          1786702325,
          1786702327,
          1786702329,
          1786702331,
          1786702333,
          1786702335,
          1786702337,
          1786702339,
          1786702341,
          1786702343,
          1786702345,
          1786702347,
          1786702349,
          1786702351,
          1786702353,
          1786702355,
          1786702357,
          1786702359,
          1786702361,
          1786702363,
          1786702365,
          1786702368,
          1786702369,
          1786702371,
          1786702373,
          1786702375,
          1786702377,
          1786702379,
          1786702381,
          1786702383,
          1786702385,
          1786702387,
          1786702389,
          1786702391,
          1786702393,
          1786702395,
          1786702397,
          1786702399,
          1786702401,
          1786702403,
          1786702405,
          1786702407,
          1786702409,
          1786702411,
          1786702413,
          1786702415,
          1786702417,
          1786702419,
          1786702421,
          1786702423,
          1786702425,
          1786702427,
          1786702429,
          1786702431,
          1786702433,
          1786702435,
          1786702437,
          1786702439,
          1786702441,
          1786702443,
          1786702445,
          1786702447,
          1786702449,
          1786702451,
          1786702453,
          1786702455,
          1786702457,
          1786702459,
          1786702461,
          1786702463,
          1786702465,
          1786702467,
          1786702469,
          1786702471,
          1786702473,
          1786702475,
          1786702477,
          1786702479,
          1786702481,
          1786702483,
          1786702485,
          1786702487,
          1786702489,
          1786702491,
          1786702493,
          1786702495,
          1786702497,
          1786702499,
          1786702501,
          1786702503,
          1786702505,
          1786702507,
          1786702509,
          1786702511,
          1786702513,
          1786702515,
          1786702517,
          1786702519,
          1786702521,
          1786702523,
          1786702525,
          1786702527,
          1786702529,
          1786702531,
          1786702533,
          1786702535,
          1786702537,
          1786702539,
          1786702541,
          1786702543,
          1786702545,
          1786702547,
          1786702549,
          1786702551,
          1786702553,
          1786702555,
          1786702557,
          1786702559,
          1786702561,
          1786702563,
          1786702565,
          1786702567,
          1786702569,
          1786702571,
          1786702573,
          1786702575,
          1786702578,
          1786702580,
          1786702582,
          1786702584,
          1786702586,
          1786702588,
          1786702590,
          1786702592,
          1786702594,
          1786702596,
          1786702598,
          1786702600,
          1786702602,
          1786702604,
          1786702606,
          1786702608,
          1786702610,
          1786702612,
          1786702614,
          1786702616,
          1786702618,
          1786702620,
          1786702622,
          1786702624,
          1786702626,
          1786702628,
          1786702630,
          1786702632,
          1786702634,
          1786702636,
          1786702638,
          1786702640,
          1786702642,
          1786702644,
          1786702646,
          1786702648,
          1786702650,
          1786702652,
          1786702654,
          1786702656,
          1786702658,
          1786702660,
          1786702662,
          1786702664,
          1786702666,
          1786702668,
          1786702670,
          1786702672,
          1786702674,
          1786702676,
          1786702679,
          1786702680,
          1786702682,
          1786702684,
          1786702686,
          1786702688,
          1786702691,
          1786702694,
          1786702696,
          1786702698,
          1786702700,
          1786702702,
          1786702704,
          1786702706,
          1786702708,
          1786702710,
          1786702712,
          1786702714,
          1786702716,
          1786702718,
          1786702720,
          1786702722,
          1786702724,
          1786702726,
          1786702728,
          1786702730,
          1786702732,
          1786702734,
          1786702736,
          1786702738,
          1786702740,
          1786702742,
          1786702744,
          1786702746,
          1786702748,
          1786702750,
          1786702752,
          1786702754,
          1786702756,
          1786702758,
          1786702760,
          1786702762,
          1786702764,
          1786702766,
          1786702768,
          1786702770,
          1786702772,
          1786702775,
          1786702777,
          1786702779,
          1786702781,
          1786702783,
          1786702785,
          1786702787,
          1786702789,
          1786702791,
          1786702793,
          1786702795,
          1786702797,
          1786702799,
          1786702801,
          1786702803,
          1786702805,
          1786702807,
          1786702809,
          1786702811,
          1786702813,
          1786702815,
          1786702817,
          1786702819,
          1786702821,
          1786702823,
          1786702825,
          1786702827,
          1786702829,
          1786702831,
          1786702833,
          1786702835,
          1786702837,
          1786702839,
          1786702841,
          1786702843,
          1786702845,
          1786702847,
          1786702849,
          1786702851,
          1786702853,
          1786702855,
          1786702857,
          1786702859,
          1786702861,
          1786702863,
          1786702865,
          1786702867,
          1786702869,
          1786702871,
          1786702873,
          1786702875,
          1786702877,
          1786702879,
          1786702881,
          1786702883,
          1786702885,
          1786702887,
          1786702889,
          1786702891,
          1786702893,
          1786702895,
          1786702897,
          1786702899,
          1786702902,
          1786702903,
          1786702905,
          1786702907,
          1786702909,
          1786702911,
          1786702913,
          1786702915,
          1786702917,
          1786702919,
          1786702921,
          1786702923,
          1786702925,
          1786702927,
          1786702929,
          1786702931,
          1786702933,
          1786702935,
          1786702937,
          1786702939,
          1786702941,
          1786702943,
          1786702945,
          1786702947
        ]
      }
    }
  ]
}