{
  "version": 3,
  "type": "TrackManifest",
  "properties": {
    "id": "E5YAWBX5T5H7",
    "name": "gjggfffdhhfg",
    "boat": "–",
    "skipper": "Skipper-OT9Px3",
    "trip_start": null,
    "trip_end": null,
    "status": "active",
    "created_at": "2026-08-14T10:03:27.867057Z",
    "stats": {
      "distance_total_nm": 0.0,
      "point_count": 0,
      "segment_count": 1
    }
  },
  "segments": [
    {
      "id": "s001",
      "file": "c0295fbf59c286700395cdd6a9e37b8319fc91c1e9874317679f9c7a15b361dc-s001.geojson",
      "t_start": null,
      "t_stop": null,
      "point_count": 0,
      "distance_nm": 0.0,
      "ts_hash": "cbf29ce484222325",
      "anchor": {
        "known": true,
        "boot_id": "26",
        "mono_anchor_ms": 2575390033,
        "wall_anchor_ms": 1786701770810,
        "anchored_at_t": 1786701770,
        "uncertain": false
      },
      "opened_at": "2026-08-14T10:03:41.275568Z",
      "closed_at": null,
      "closed": false,
      "conflict": false
    }
  ]
}