{
  "type": "FeatureCollection",
  "properties": {
    "version": 3,
    "track_id": "GC8DC4YF677S",
    "segment": "s001",
    "opened_at": "2026-08-05T19:20:29.544901Z",
    "closed_at": "2026-08-05T19:20:34.237594Z",
    "anchor": {
      "known": true,
      "boot_id": "26",
      "mono_anchor_ms": 1831204561,
      "wall_anchor_ms": 1785860259332,
      "anchored_at_t": 1785957585,
      "uncertain": false,
      "shifts": [
        {
          "delta": -97326,
          "at": "2026-08-05T19:22:14.045532Z"
        }
      ]
    },
    "stats": {
      "distance_nm": 0.004,
      "point_count": 14,
      "t_start": 1785860273,
      "t_stop": 1785860299
    }
  },
  "features": [
    {
      "type": "Feature",
      "geometry": {
        "type": "LineString",
        "coordinates": [
          [
            8.3976015,
            51.5727932
          ],
          [
            8.3975956,
            51.5727949
          ],
          [
            8.3975952,
            51.5727908
          ],
          [
            8.3975917,
            51.57279
          ],
          [
            8.3975867,
            51.572791
          ],
          [
            8.3975671,
            51.5728101
          ],
          [
            8.3975592,
            51.572817
          ],
          [
            8.397568,
            51.5728136
          ],
          [
            8.3975732,
            51.5728087
          ],
          [
            8.3975762,
            51.572805
          ],
          [
            8.3975772,
            51.5728054
          ],
          [
            8.3975692,
            51.5728054
          ],
          [
            8.397564,
            51.5728114
          ],
          [
            8.3975652,
            51.5728122
          ]
        ]
      },
      "properties": {
        "timestamps": [
          1785860273,
          1785860275,
          1785860277,
          1785860279,
          1785860281,
          1785860283,
          1785860285,
          1785860288,
          1785860290,
          1785860291,
          1785860293,
          1785860295,
          1785860297,
          1785860299
        ]
      }
    }
  ]
}