{
  "type": "FeatureCollection",
  "properties": {
    "version": 3,
    "track_id": "Y8PM9J6EM4WH",
    "segment": "s001",
    "opened_at": "2026-08-06T15:57:05.851656Z",
    "closed_at": "2026-08-06T16:00:02.023919Z",
    "anchor": {
      "known": true,
      "boot_id": "26",
      "mono_anchor_ms": 1905338363,
      "wall_anchor_ms": 1786031719133,
      "anchored_at_t": 1786031719,
      "uncertain": false
    },
    "stats": {
      "distance_nm": 0.0,
      "point_count": 0,
      "t_start": null,
      "t_stop": null
    }
  },
  "features": [
    {
      "type": "Feature",
      "geometry": {
        "type": "LineString",
        "coordinates": []
      },
      "properties": {
        "timestamps": []
      }
    }
  ]
}