{
  "type": "FeatureCollection",
  "properties": {
    "version": 3,
    "track_id": "Y8PM9J6EM4WH",
    "segment": "s002",
    "opened_at": "2026-08-06T20:01:35.356831Z",
    "closed_at": "2026-08-06T20:01:44.466991Z",
    "anchor": {
      "known": true,
      "boot_id": "26",
      "mono_anchor_ms": 1920069657,
      "wall_anchor_ms": 1786046450427,
      "anchored_at_t": 1786046450,
      "uncertain": false
    },
    "stats": {
      "distance_nm": 0.006,
      "point_count": 4,
      "t_start": 1786046458,
      "t_stop": 1786046465
    }
  },
  "features": [
    {
      "type": "Feature",
      "geometry": {
        "type": "LineString",
        "coordinates": [
          [
            8.3976041,
            51.5728691
          ],
          [
            8.3975489,
            51.57284
          ],
          [
            8.3975731,
            51.5728074
          ],
          [
            8.3975766,
            51.5728229
          ]
        ]
      },
      "properties": {
        "timestamps": [
          1786046458,
          1786046461,
          1786046463,
          1786046465
        ]
      }
    }
  ]
}