{
  "type": "FeatureCollection",
  "properties": {
    "version": 3,
    "track_id": "Y8PM9J6EM4WH",
    "segment": "s004",
    "opened_at": "2026-08-06T20:46:53.033877Z",
    "closed_at": "2026-08-06T20:46:58.776989Z",
    "anchor": {
      "known": true,
      "boot_id": "26",
      "mono_anchor_ms": 1922797140,
      "wall_anchor_ms": 1786049177905,
      "anchored_at_t": 1786049177,
      "uncertain": false
    },
    "stats": {
      "distance_nm": 0.0,
      "point_count": 0,
      "t_start": null,
      "t_stop": null
    }
  },
  "features": [
    {
      "type": "Feature",
      "geometry": {
        "type": "LineString",
        "coordinates": []
      },
      "properties": {
        "timestamps": []
      }
    }
  ]
}