{
  "version": 3,
  "type": "TrackManifest",
  "properties": {
    "id": "Y8PM9J6EM4WH",
    "name": "test",
    "boat": "–",
    "skipper": "Skipper-OT9Px3",
    "trip_start": null,
    "trip_end": null,
    "status": "active",
    "created_at": "2026-08-06T12:36:21.264054Z",
    "stats": {
      "distance_total_nm": 0.045,
      "point_count": 32,
      "segment_count": 2
    }
  },
  "segments": [
    {
      "id": "s001",
      "file": "c2054d2decce26c5f90378f7d3971bed94c8446830f9c9ab473df0f684dacb83-s001.geojson",
      "t_start": 1786031722,
      "t_stop": 1786031928,
      "point_count": 32,
      "distance_nm": 0.045,
      "ts_hash": "56ba4c5ae6cb0d08",
      "anchor": {
        "known": true,
        "boot_id": "26",
        "mono_anchor_ms": 1905338363,
        "wall_anchor_ms": 1786031719133,
        "anchored_at_t": 1786031719,
        "uncertain": false
      },
      "opened_at": "2026-08-06T15:57:05.851656Z",
      "closed_at": "2026-08-06T16:00:02.023919Z",
      "closed": true,
      "conflict": false
    },
    {
      "id": "s002",
      "file": "c2054d2decce26c5f90378f7d3971bed94c8446830f9c9ab473df0f684dacb83-s002.geojson",
      "t_start": null,
      "t_stop": null,
      "point_count": 0,
      "distance_nm": 0.0,
      "ts_hash": "cbf29ce484222325",
      "anchor": {
        "known": true,
        "boot_id": "26",
        "mono_anchor_ms": 1920069657,
        "wall_anchor_ms": 1786046450427,
        "anchored_at_t": 1786046450,
        "uncertain": false
      },
      "opened_at": "2026-08-06T20:01:35.356831Z",
      "closed_at": "2026-08-06T20:01:44.466991Z",
      "closed": true,
      "conflict": false
    }
  ]
}