{
  "type": "FeatureCollection",
  "properties": {
    "version": 3,
    "track_id": "Y8PM9J6EM4WH",
    "segment": "s003",
    "opened_at": "2026-08-06T20:13:37.407329Z",
    "closed_at": "2026-08-06T20:13:44.560471Z",
    "anchor": {
      "known": true,
      "boot_id": "26",
      "mono_anchor_ms": 1920816913,
      "wall_anchor_ms": 1786047197702,
      "anchored_at_t": 1786047197,
      "uncertain": false
    },
    "stats": {
      "distance_nm": 0.0,
      "point_count": 2,
      "t_start": 1786047208,
      "t_stop": 1786047210
    }
  },
  "features": [
    {
      "type": "Feature",
      "geometry": {
        "type": "LineString",
        "coordinates": [
          [
            8.3975789,
            51.5728601
          ],
          [
            8.3975793,
            51.5728634
          ]
        ]
      },
      "properties": {
        "timestamps": [
          1786047208,
          1786047210
        ]
      }
    }
  ]
}